Name,Latitude,Longitude,Address,Hour Status
Austin International School,30.4223125,-97.7181875,"4001 Adelphi Ln, Austin, TX 78727",[]
Austin High School,30.2735625,-97.7666875,"1715 W Cesar Chavez St, Austin, TX 78703",[]
Garza Independence High School,30.2773125,-97.7213125,"1600 Chicon St, Austin, TX 78702",[]
Regents School of Austin,30.2545625,-97.8453125,"3230 Travis Country Cir, Austin, TX 78735",[]
Liberal Arts and Science Academy,30.2571875,-97.6819375,"1012 Arthur Stiles Rd, Austin, TX 78721",[]
Austin Waldorf School,30.2314375,-97.9128125,"8700 S View Rd, Austin, TX 78737",[]
Austin Discovery School,30.2678125,-97.6349375,"9303 FM 969, Austin, TX 78724",[]
Headwaters School | River Campus,30.2723125,-97.7483125,"807 Rio Grande St, Austin, TX 78701",[]
Acton Academy (Main Campus),30.2848125,-97.7099375,"2201 Alexander Ave, Austin, TX 78722",[]
Premier High School - Austin South,30.2265625,-97.7834375,"1701 W Ben White Blvd Suite 100A, Austin, TX 78704",[]
Andrews Elementary School,30.3175625,-97.6796875,"6801 Northeast Dr, Austin, TX 78723",[]
Harmony School of Excellence - Austin,30.2104375,-97.7466875,"2100 E St Elmo Rd, Austin, TX 78744",[]
St. Francis School,30.3311875,-97.7101875,"300 E Huntland Dr, Austin, TX 78752",[]
William B. Travis High School,30.2329375,-97.7441875,"1211 E Oltorf St, Austin, TX 78704",[]
Barton Creek Elementary School,30.3073125,-97.8808125,"1314 Patterson Rd, Austin, TX 78733",[]
St. Michael's Catholic Preparatory School,30.290437500000003,-97.8759375,"3000 Barton Creek Blvd, Austin, TX 78735",[]
Cedar Creek Elementary School,30.268812500000003,-97.8065625,"3301 Pinnacle Rd, Austin, TX 78746",[]
St. Michael's Catholic Preparatory School,30.291937500000003,-97.8736875,"2500 Wimberly Ln, Austin, TX 78735",[]
Barton Hills Elementary School,30.2541875,-97.7831875,"2108 Barton Hills Dr, Austin, TX 78704",[]
"Barton Creek Child Development Center, Inc.",30.2578125,-97.8884375,"5611 Travis Cook Rd, Austin, TX 78735",[]
Eanes ISD DAEP - Discipline Alternative Educational Program,30.2743125,-97.8146875,"1390 Westbank Dr, Austin, TX 78746",[]
Bear Creek Elementary School,30.1709375,-97.9104375,"12801 Escarpment Blvd, Austin, TX 78739",[]
Austin Montessori School - Gaines Creek Campus,30.2369375,-97.8481875,"5677 Oak Blvd, Austin, TX 78735",[]
Headwaters School | Creek Campus,30.1879375,-97.8461875,"9607 Brodie Ln, Austin, TX 78748",[]
Acton Academy Bee Cave,30.3071875,-97.9776875,"14820 Hamilton Pool Rd, Austin, TX 78738",[]
Adult Transition Services,30.2729375,-97.8019375,"1020 Walsh Tarlton Ln, Austin, TX 78746",[]
Victory Step Education,30.2801875,-97.8234375,"1250 S Capital of Texas Hwy Bldg. 3, Suite 400, Austin, TX 78746",[]
Trinity Episcopal School of Austin,30.2803125,-97.8103125,"3901 Bee Caves Rd, Austin, TX 78746",[]
Bee Cave Elementary School,30.3086875,-97.9688125,"14300 Hamilton Pool Rd, Bee Cave, TX 78738",[]
The Magnolia School,30.3223125,-97.9576875,"3500 Ranch Rd 620 S Bldg G, Bee Cave, TX 78738",[]
International School of Texas,30.3188125,-97.9864375,"15506 State Hwy 71 C, Bee Cave, TX 78738",[]
Guidepost Montessori at Bee Cave,30.311187500000003,-97.9650625,"14058 Bee Cave Pkwy Building C, Austin, TX 78738",[]
Bee Cave Middle School,30.3119375,-97.9986875,"5400 Vail Divide, Austin, TX 78738",[]
Primrose School of Bee Cave,30.3086875,-97.9355625,"3801 Juniper Trce, Bee Cave, TX 78738",[]
Lake Hills Montessori Bee Cave,30.3116875,-97.9495625,"3930 Ranch Rd 620 S, Austin, TX 78738",[]
Best In Class Education Center Bee Cave,30.3033125,-97.9313125,"12400 State Hwy 71 #505, Bee Cave, TX 78738",[]
My Time Kids Academy- Bee Cave,30.3180625,-97.9513125,"3698 Ranch Rd 620 S Suite #103, Bee Cave, TX 78738",[]
The PREP School of Bee Cave,30.3110625,-97.9634375,"14001 Bee Cave Pkwy, Bee Cave, TX 78738",[]
Kiddie Academy of Bee Cave,30.3173125,-97.9924375,"16003 State Hwy 71, Bee Cave, TX 78738",[]
Lake Pointe Elementary School,30.309687500000003,-97.9205625,"11801 Sonoma Dr, Austin, TX 78738",[]
The Learning Experience - Bee Cave,30.3169375,-97.9786875,"15054 State Hwy 71, Bee Cave, TX 78738",[]
Learn and Laugh Preschool,30.3083125,-97.9193125,"11715 Bee Caves Rd, Bee Cave, TX 78738",[]
Lake Travis middle school track and field,30.3389375,-98.0321875,"Briarcliff, TX 78669",[]
West Cypress Hills Elementary School,30.3501875,-98.0846875,"6112 Cypress Ranch Blvd, Spicewood, TX 78669",[]
Lake Travis Middle School Tennis Courts,30.3364375,-98.0294375,"Briarcliff, TX 78669",[]
Lake Travis middle school,30.3380625,-98.0311875,"4932 Bee Creek Rd, Spicewood, TX 78669",[]
Bridges Academy Austin,30.3831875,-97.8843125,"4308 N Quinlan Park Rd STE 100, Austin, TX 78732",[]
Kitestrings Pediatric Therapy,30.348437500000003,-98.0545625,"20424 Haystack Cove, Briarcliff, TX 78669",[]
Elgin Elementary School,30.3496875,-97.3798125,"1005 W 2nd St, Elgin, TX 78621",[]
Elgin High School,30.3663125,-97.4041875,"14000 County Line Rd, Elgin, TX 78621",[]
Neidig Elementary School,30.3604375,-97.4076875,"13700 County Line Rd, Elgin, TX 78621",[]
Elgin Middle School,30.3583125,-97.3866875,"1351 N Avenue C, Elgin, TX 78621",[]
Elgin Intermediate School,30.3478125,-97.3790625,"902 W 2nd St, Elgin, TX 78621",[]
Elgin Independent School District,30.3523125,-97.3779375,"1002 N Avenue C, Elgin, TX 78621",[]
Harvest Ridge Elementary School,30.3695625,-97.3940625,"338 Harvest Rdg Blvd, Elgin, TX 78621",[]
Hornsby-Dunlap Elementary School,30.2470625,-97.5878125,"4601 Hound Dog Trail, Austin, TX 78725",[]
Dailey Middle School,30.2429375,-97.5895625,"14000 Westall St, Austin, TX 78725",[]
Hudson Bend Middle School,30.3909375,-97.9350625,"15600 Lariat Trail, Austin, TX 78734",[]
Texas Sports Academy,30.4045625,-97.9279375,"4402 Hudson Bend Rd, Austin, TX 78734",[]
Lake Travis Elementary School,30.3701875,-97.9453125,"15303 Kollmeyer Dr, Austin, TX 78734",[]
Cox Springs School,30.4549375,-97.9518125,"18725 Old Burnet Rd, Jonestown, TX 78645",[]
Baseball Velocity School,30.4914375,-97.9234375,"18671 Old Farm to Market Rd 1431, Jonestown, TX 78645",[]
Enkindle Pottery Studio,30.496562500000003,-97.9233125,"18601 RM 1431 Suite 102, Jonestown, TX 78645",[]
Villa Antonia,30.4670625,-97.9521875,"19039 Adrian Way, Jonestown, TX 78645",[]
Lucky Rabbit Live Music Bar & Kitchen,30.4944375,-97.9251875,"18626 RM 1431, Jonestown, TX 78645","['0% busy at 6\u202fAM.', '0% busy at 7\u202fAM.', '0% busy at 8\u202fAM.', '0% busy at 9\u202fAM.', '16% busy at 10\u202fAM.', '30% busy at 11\u202fAM.', '45% busy at 12\u202fPM.', '44% busy at 1\u202fPM.', '41% busy at 2\u202fPM.', '38% busy at 3\u202fPM.', '45% busy at 4\u202fPM.', '51% busy at 5\u202fPM.', '52% busy at 6\u202fPM.', '45% busy at 7\u202fPM.', '31% busy at 8\u202fPM.', '16% busy at 9\u202fPM.', '0% busy at 10\u202fPM.', '0% busy at 11\u202fPM.', '0% busy at 6\u202fAM.', '0% busy at 7\u202fAM.', '0% busy at 8\u202fAM.', '0% busy at 9\u202fAM.', '0% busy at 10\u202fAM.', '12% busy at 11\u202fAM.', '13% busy at 12\u202fPM.', '10% busy at 1\u202fPM.', '6% busy at 2\u202fPM.', '6% busy at 3\u202fPM.', '15% busy at 4\u202fPM.', '26% busy at 5\u202fPM.', '33% busy at 6\u202fPM.', '35% busy at 7\u202fPM.', '29% busy at 8\u202fPM.', '15% busy at 9\u202fPM.', '0% busy at 10\u202fPM.', '0% busy at 11\u202fPM.', '0% busy at 6\u202fAM.', '0% busy at 7\u202fAM.', '0% busy at 8\u202fAM.', '0% busy at 9\u202fAM.', '0% busy at 10\u202fAM.', '12% busy at 11\u202fAM.', '11% busy at 12\u202fPM.', '10% busy at 1\u202fPM.', '12% busy at 2\u202fPM.', '15% busy at 3\u202fPM.', '21% busy at 4\u202fPM.', '25% busy at 5\u202fPM.', '28% busy at 6\u202fPM.', '28% busy at 7\u202fPM.', '27% busy at 8\u202fPM.', '19% busy at 9\u202fPM.', '0% busy at 10\u202fPM.', '0% busy at 11\u202fPM.', '0% busy at 6\u202fAM.', '0% busy at 7\u202fAM.', '0% busy at 8\u202fAM.', '0% busy at 9\u202fAM.', '0% busy at 10\u202fAM.', '6% busy at 11\u202fAM.', '6% busy at 12\u202fPM.', '7% busy at 1\u202fPM.', '11% busy at 2\u202fPM.', '13% busy at 3\u202fPM.', '22% busy at 4\u202fPM.', '38% busy at 5\u202fPM.', '57% busy at 6\u202fPM.', '66% busy at 7\u202fPM.', '60% busy at 8\u202fPM.', '40% busy at 9\u202fPM.', '25% busy at 10\u202fPM.', '15% busy at 11\u202fPM.', '0% busy at 6\u202fAM.', '0% busy at 7\u202fAM.', '0% busy at 8\u202fAM.', '0% busy at 9\u202fAM.', '0% busy at 10\u202fAM.', '13% busy at 11\u202fAM.', '19% busy at 12\u202fPM.', '18% busy at 1\u202fPM.', '14% busy at 2\u202fPM.', '12% busy at 3\u202fPM.', '18% busy at 4\u202fPM.', '30% busy at 5\u202fPM.', '38% busy at 6\u202fPM.', '43% busy at 7\u202fPM.', '39% busy at 8\u202fPM.', '30% busy at 9\u202fPM.', '19% busy at 10\u202fPM.', '9% busy at 11\u202fPM.', '0% busy at 6\u202fAM.', '0% busy at 7\u202fAM.', '0% busy at 8\u202fAM.', '0% busy at 9\u202fAM.', '0% busy at 10\u202fAM.', '16% busy at 11\u202fAM.', '25% busy at 12\u202fPM.', '28% busy at 1\u202fPM.', '29% busy at 2\u202fPM.', '32% busy at 3\u202fPM.', '42% busy at 4\u202fPM.', '56% busy at 5\u202fPM.', '76% busy at 6\u202fPM.', '90% busy at 7\u202fPM.', '100% busy at 8\u202fPM.', '91% busy at 9\u202fPM.', '73% busy at 10\u202fPM.', '48% busy at 11\u202fPM.', '26% busy at 12\u202fAM.', '0% busy at 6\u202fAM.', '0% busy at 7\u202fAM.', '0% busy at 8\u202fAM.', '0% busy at 9\u202fAM.', '19% busy at 10\u202fAM.', '35% busy at 11\u202fAM.', '49% busy at 12\u202fPM.', '57% busy at 1\u202fPM.', '63% busy at 2\u202fPM.', '64% busy at 3\u202fPM.', '66% busy at 4\u202fPM.', '70% busy at 5\u202fPM.', '80% busy at 6\u202fPM.', '86% busy at 7\u202fPM.', '92% busy at 8\u202fPM.', '89% busy at 9\u202fPM.', '79% busy at 10\u202fPM.', '62% busy at 11\u202fPM.', '39% busy at 12\u202fAM.']"
The Waterfall Terrace,30.4929375,-97.9378125,"10210 Vassar Rd, Jonestown, TX 78645",[]
The Bunker Self Defense,30.5034375,-97.9163125,"18360 RM 1431 Suite C, Jonestown, TX 78645","['0% busy at 5\u202fAM.', '42% busy at 6\u202fAM.', '31% busy at 7\u202fAM.', '36% busy at 8\u202fAM.', '52% busy at 9\u202fAM.', '26% busy at 10\u202fAM.', '10% busy at 11\u202fAM.', '0% busy at 12\u202fPM.', '0% busy at 1\u202fPM.', '0% busy at 2\u202fPM.', '0% busy at 3\u202fPM.', '0% busy at 4\u202fPM.', '0% busy at 5\u202fPM.', '0% busy at 6\u202fPM.', '5% busy at 7\u202fPM.', '15% busy at 8\u202fPM.', '0% busy at 9\u202fPM.', '0% busy at 10\u202fPM.', '0% busy at 5\u202fAM.', '15% busy at 6\u202fAM.', '5% busy at 7\u202fAM.', '10% busy at 8\u202fAM.', '15% busy at 9\u202fAM.', '5% busy at 10\u202fAM.', '10% busy at 11\u202fAM.', '10% busy at 12\u202fPM.', '10% busy at 1\u202fPM.', '0% busy at 2\u202fPM.', '15% busy at 3\u202fPM.', '21% busy at 4\u202fPM.', '63% busy at 5\u202fPM.', '63% busy at 6\u202fPM.', '100% busy at 7\u202fPM.', '73% busy at 8\u202fPM.', '0% busy at 9\u202fPM.', '0% busy at 10\u202fPM.', '0% busy at 5\u202fAM.', '0% busy at 6\u202fAM.', '0% busy at 7\u202fAM.', '0% busy at 8\u202fAM.', '0% busy at 9\u202fAM.', '0% busy at 10\u202fAM.', '0% busy at 11\u202fAM.', '0% busy at 12\u202fPM.', '0% busy at 1\u202fPM.', '10% busy at 2\u202fPM.', '26% busy at 3\u202fPM.', '42% busy at 4\u202fPM.', '57% busy at 5\u202fPM.', '52% busy at 6\u202fPM.', '47% busy at 7\u202fPM.', '31% busy at 8\u202fPM.', '0% busy at 9\u202fPM.', '0% busy at 10\u202fPM.', '0% busy at 5\u202fAM.', '26% busy at 6\u202fAM.', '21% busy at 7\u202fAM.', '5% busy at 8\u202fAM.', '0% busy at 9\u202fAM.', '5% busy at 10\u202fAM.', '10% busy at 11\u202fAM.', '15% busy at 12\u202fPM.', '15% busy at 1\u202fPM.', '36% busy at 2\u202fPM.', '36% busy at 3\u202fPM.', '63% busy at 4\u202fPM.', '73% busy at 5\u202fPM.', '94% busy at 6\u202fPM.', '78% busy at 7\u202fPM.', '84% busy at 8\u202fPM.', '0% busy at 9\u202fPM.', '0% busy at 10\u202fPM.', '0% busy at 6\u202fAM.', '0% busy at 7\u202fAM.', '0% busy at 8\u202fAM.', '0% busy at 9\u202fAM.', '47% busy at 10\u202fAM.', '31% busy at 11\u202fAM.', '26% busy at 12\u202fPM.', '31% busy at 1\u202fPM.', '15% busy at 2\u202fPM.', '5% busy at 3\u202fPM.', '0% busy at 4\u202fPM.', '10% busy at 5\u202fPM.', '15% busy at 6\u202fPM.', '36% busy at 7\u202fPM.', '31% busy at 8\u202fPM.', '15% busy at 9\u202fPM.', '10% busy at 10\u202fPM.', '10% busy at 11\u202fPM.', '10% busy at 12\u202fAM.', '26% busy at 1\u202fAM.', '10% busy at 2\u202fAM.', '0% busy at 6\u202fAM.', '0% busy at 7\u202fAM.', '0% busy at 8\u202fAM.', '21% busy at 9\u202fAM.', '52% busy at 10\u202fAM.', '52% busy at 11\u202fAM.', '21% busy at 12\u202fPM.', '5% busy at 1\u202fPM.', '5% busy at 2\u202fPM.', '0% busy at 3\u202fPM.', '0% busy at 4\u202fPM.', '0% busy at 5\u202fPM.', '0% busy at 6\u202fPM.', '0% busy at 7\u202fPM.', '0% busy at 8\u202fPM.', '0% busy at 9\u202fPM.', '0% busy at 10\u202fPM.', '0% busy at 11\u202fPM.']"
Lone Star Bar,30.4921875,-97.9233125,"18655 RM 1431, Jonestown, TX 78645","['0% busy at 6\u202fAM.', '0% busy at 7\u202fAM.', '0% busy at 8\u202fAM.', '0% busy at 9\u202fAM.', '0% busy at 10\u202fAM.', '0% busy at 11\u202fAM.', '14% busy at 12\u202fPM.', '16% busy at 1\u202fPM.', '13% busy at 2\u202fPM.', '12% busy at 3\u202fPM.', '8% busy at 4\u202fPM.', '5% busy at 5\u202fPM.', '8% busy at 6\u202fPM.', '12% busy at 7\u202fPM.', '12% busy at 8\u202fPM.', '14% busy at 9\u202fPM.', '15% busy at 10\u202fPM.', '17% busy at 11\u202fPM.', '11% busy at 12\u202fAM.', '12% busy at 1\u202fAM.', '0% busy at 6\u202fAM.', '0% busy at 7\u202fAM.', '0% busy at 8\u202fAM.', '0% busy at 9\u202fAM.', '0% busy at 10\u202fAM.', '0% busy at 11\u202fAM.', '0% busy at 12\u202fPM.', '0% busy at 1\u202fPM.', '0% busy at 2\u202fPM.', '0% busy at 3\u202fPM.', '0% busy at 4\u202fPM.', '25% busy at 5\u202fPM.', '23% busy at 6\u202fPM.', '23% busy at 7\u202fPM.', '16% busy at 8\u202fPM.', '14% busy at 9\u202fPM.', '14% busy at 10\u202fPM.', '13% busy at 11\u202fPM.', '7% busy at 12\u202fAM.', '4% busy at 1\u202fAM.', '0% busy at 6\u202fAM.', '0% busy at 7\u202fAM.', '0% busy at 8\u202fAM.', '0% busy at 9\u202fAM.', '0% busy at 10\u202fAM.', '0% busy at 11\u202fAM.', '0% busy at 12\u202fPM.', '0% busy at 1\u202fPM.', '8% busy at 2\u202fPM.', '12% busy at 3\u202fPM.', '17% busy at 4\u202fPM.', '27% busy at 5\u202fPM.', '34% busy at 6\u202fPM.', '36% busy at 7\u202fPM.', '36% busy at 8\u202fPM.', '33% busy at 9\u202fPM.', '26% busy at 10\u202fPM.', '19% busy at 11\u202fPM.', '15% busy at 12\u202fAM.', '11% busy at 1\u202fAM.', '0% busy at 6\u202fAM.', '0% busy at 7\u202fAM.', '0% busy at 8\u202fAM.', '0% busy at 9\u202fAM.', '0% busy at 10\u202fAM.', '0% busy at 11\u202fAM.', '0% busy at 12\u202fPM.', '0% busy at 1\u202fPM.', '20% busy at 2\u202fPM.', '22% busy at 3\u202fPM.', '24% busy at 4\u202fPM.', '27% busy at 5\u202fPM.', '26% busy at 6\u202fPM.', '27% busy at 7\u202fPM.', '24% busy at 8\u202fPM.', '29% busy at 9\u202fPM.', '36% busy at 10\u202fPM.', '38% busy at 11\u202fPM.', '29% busy at 12\u202fAM.', '19% busy at 1\u202fAM.', '0% busy at 6\u202fAM.', '0% busy at 7\u202fAM.', '0% busy at 8\u202fAM.', '0% busy at 9\u202fAM.', '0% busy at 10\u202fAM.', '0% busy at 11\u202fAM.', '0% busy at 12\u202fPM.', '0% busy at 1\u202fPM.', '13% busy at 2\u202fPM.', '23% busy at 3\u202fPM.', '26% busy at 4\u202fPM.', '34% busy at 5\u202fPM.', '38% busy at 6\u202fPM.', '42% busy at 7\u202fPM.', '45% busy at 8\u202fPM.', '42% busy at 9\u202fPM.', '38% busy at 10\u202fPM.', '30% busy at 11\u202fPM.', '23% busy at 12\u202fAM.', '15% busy at 1\u202fAM.', '0% busy at 6\u202fAM.', '0% busy at 7\u202fAM.', '0% busy at 8\u202fAM.', '0% busy at 9\u202fAM.', '0% busy at 10\u202fAM.', '0% busy at 11\u202fAM.', '0% busy at 12\u202fPM.', '0% busy at 1\u202fPM.', '13% busy at 2\u202fPM.', '16% busy at 3\u202fPM.', '25% busy at 4\u202fPM.', '24% busy at 5\u202fPM.', '25% busy at 6\u202fPM.', '26% busy at 7\u202fPM.', '50% busy at 8\u202fPM.', '78% busy at 9\u202fPM.', '100% busy at 10\u202fPM.', '97% busy at 11\u202fPM.', '65% busy at 12\u202fAM.', '34% busy at 1\u202fAM.', '0% busy at 6\u202fAM.', '0% busy at 7\u202fAM.', '0% busy at 8\u202fAM.', '0% busy at 9\u202fAM.', '0% busy at 10\u202fAM.', '0% busy at 11\u202fAM.', '7% busy at 12\u202fPM.', '9% busy at 1\u202fPM.', '15% busy at 2\u202fPM.', '23% busy at 3\u202fPM.', '30% busy at 4\u202fPM.', '24% busy at 5\u202fPM.', '20% busy at 6\u202fPM.', '22% busy at 7\u202fPM.', '38% busy at 8\u202fPM.', '63% busy at 9\u202fPM.', '78% busy at 10\u202fPM.', '79% busy at 11\u202fPM.', '61% busy at 12\u202fAM.', '41% busy at 1\u202fAM.']"
Soul Society Yoga,30.496562500000003,-97.9233125,"18601 RM 1431, Jonestown, TX 78645",[]
Lago Vista Middle School,30.4805625,-97.9768125,"20801 RM 1431, Lago Vista, TX 78645",[]
RITUAL North Shore,30.496562500000003,-97.9233125,"18601 RM 1431 Ste. 105, Jonestown, TX 78645",[]
Bohemian Barbecue,30.5054375,-97.9331875,"11370 Mountain Top Cir, Jonestown, TX 78645",[]
Lago Vista Elementary School,30.4530625,-97.9824375,"20311 Dawn Dr, Lago Vista, TX 78645",[]
Sail Austin Charters - North Shore,30.4426875,-97.9339375,"6612 Lantern View Dr, Jonestown, TX 78645","['0% busy at 6\u202fAM.', '16% busy at 7\u202fAM.', '33% busy at 8\u202fAM.', '25% busy at 9\u202fAM.', '58% busy at 10\u202fAM.', '66% busy at 11\u202fAM.', '100% busy at 12\u202fPM.', '50% busy at 1\u202fPM.', '25% busy at 2\u202fPM.', '8% busy at 3\u202fPM.', '25% busy at 4\u202fPM.', '75% busy at 5\u202fPM.', '66% busy at 6\u202fPM.', '75% busy at 7\u202fPM.', '66% busy at 8\u202fPM.', '33% busy at 9\u202fPM.', '0% busy at 10\u202fPM.', '0% busy at 11\u202fPM.', '0% busy at 6\u202fAM.', '25% busy at 7\u202fAM.', '16% busy at 8\u202fAM.', '0% busy at 9\u202fAM.', '0% busy at 10\u202fAM.', '0% busy at 11\u202fAM.', '0% busy at 12\u202fPM.', '8% busy at 1\u202fPM.', '16% busy at 2\u202fPM.', '8% busy at 3\u202fPM.', '0% busy at 4\u202fPM.', '8% busy at 5\u202fPM.', '25% busy at 6\u202fPM.', '33% busy at 7\u202fPM.', '25% busy at 8\u202fPM.', '33% busy at 9\u202fPM.', '0% busy at 10\u202fPM.', '0% busy at 11\u202fPM.', '0% busy at 6\u202fAM.', '33% busy at 7\u202fAM.', '91% busy at 8\u202fAM.', '66% busy at 9\u202fAM.', '83% busy at 10\u202fAM.', '41% busy at 11\u202fAM.', '41% busy at 12\u202fPM.', '25% busy at 1\u202fPM.', '8% busy at 2\u202fPM.', '0% busy at 3\u202fPM.', '0% busy at 4\u202fPM.', '0% busy at 5\u202fPM.', '8% busy at 6\u202fPM.', '16% busy at 7\u202fPM.', '16% busy at 8\u202fPM.', '25% busy at 9\u202fPM.', '0% busy at 10\u202fPM.', '0% busy at 11\u202fPM.', '0% busy at 6\u202fAM.', '8% busy at 7\u202fAM.', '0% busy at 8\u202fAM.', '0% busy at 9\u202fAM.', '0% busy at 10\u202fAM.', '0% busy at 11\u202fAM.', '8% busy at 12\u202fPM.', '33% busy at 1\u202fPM.', '25% busy at 2\u202fPM.', '50% busy at 3\u202fPM.', '41% busy at 4\u202fPM.', '33% busy at 5\u202fPM.', '25% busy at 6\u202fPM.', '25% busy at 7\u202fPM.', '8% busy at 8\u202fPM.', '0% busy at 9\u202fPM.', '0% busy at 10\u202fPM.', '0% busy at 11\u202fPM.', '0% busy at 6\u202fAM.', '0% busy at 7\u202fAM.', '8% busy at 8\u202fAM.', '16% busy at 9\u202fAM.', '8% busy at 10\u202fAM.', '8% busy at 11\u202fAM.', '0% busy at 12\u202fPM.', '8% busy at 1\u202fPM.', '16% busy at 2\u202fPM.', '16% busy at 3\u202fPM.', '25% busy at 4\u202fPM.', '58% busy at 5\u202fPM.', '83% busy at 6\u202fPM.', '75% busy at 7\u202fPM.', '100% busy at 8\u202fPM.', '58% busy at 9\u202fPM.', '0% busy at 10\u202fPM.', '0% busy at 11\u202fPM.', '0% busy at 6\u202fAM.', '8% busy at 7\u202fAM.', '25% busy at 8\u202fAM.', '33% busy at 9\u202fAM.', '50% busy at 10\u202fAM.', '33% busy at 11\u202fAM.', '33% busy at 12\u202fPM.', '41% busy at 1\u202fPM.', '16% busy at 2\u202fPM.', '8% busy at 3\u202fPM.', '8% busy at 4\u202fPM.', '16% busy at 5\u202fPM.', '33% busy at 6\u202fPM.', '16% busy at 7\u202fPM.', '8% busy at 8\u202fPM.', '0% busy at 9\u202fPM.', '0% busy at 10\u202fPM.', '0% busy at 11\u202fPM.', '0% busy at 6\u202fAM.', '41% busy at 7\u202fAM.', '16% busy at 8\u202fAM.', '16% busy at 9\u202fAM.', '25% busy at 10\u202fAM.', '16% busy at 11\u202fAM.', '25% busy at 12\u202fPM.', '25% busy at 1\u202fPM.', '8% busy at 2\u202fPM.', '0% busy at 3\u202fPM.', '0% busy at 4\u202fPM.', '8% busy at 5\u202fPM.', '25% busy at 6\u202fPM.', '58% busy at 7\u202fPM.', '33% busy at 8\u202fPM.', '8% busy at 9\u202fPM.', '0% busy at 10\u202fPM.', '0% busy at 11\u202fPM.']"
Lago Vista High School,30.4411875,-97.9789375,"5185 Lohman Ford Rd, Lago Vista, TX 78645",[]
Lago Vista Classical School,30.4550625,-97.9903125,"20811 Dawn Dr, Lago Vista, TX 78645",[]
Lago Vista Intermediate School,30.4790625,-97.9769375,"8039 Bar K Ranch Rd, Lago Vista, TX 78645",[]
Lago Vista Academy,30.4550625,-97.9793125,"6307 Lohman Ford Rd #100, Lago Vista, TX 78645",[]
Lago Vista High School Stadium,30.4386875,-97.9768125,"5185 Lohman Ford Rd, Leander, TX 78645",[]
Lago Vista School Superintendent,30.4803125,-97.9773125,"8039 Bar K Ranch Rd, Lago Vista, TX 78645",[]
NorthShore Christian Academy,30.4730625,-97.9908125,"7301 Bar K Ranch Rd, Lago Vista, TX 78645",[]
Primrose School of Lakeway,30.3583125,-97.9546875,"601 Ranch Rd 620 S, Lakeway, TX 78734",[]
The Goddard School of Lakeway,30.3314375,-97.9696875,"301 Medical Pkwy, Lakeway, TX 78738",[]
Lakeway Elementary School,30.3525625,-97.9761875,"1701 Lohmans Crossing Rd, Austin, TX 78734",[]
The Learning Experience - Lakeway,30.3803125,-97.9456875,"1602 Ranch Rd 620 N, Lakeway, TX 78734",[]
Bluebonnet Montessori School of Lakeway,30.3733125,-97.9384375,"15099 Debba Dr, Austin, TX 78734",[]
Renzo Gracie Jiujitsu Lakeway,30.3405625,-97.9670625,"2301 Ranch Rd 620 S #170, Lakeway, TX 78734",[]
Lake Travis High School,30.3274375,-97.9699375,"3324 Ranch Rd 620 S, Austin, TX 78738",[]
IREC,30.3673125,-97.9441875,"15102 Cavalier Canyon Dr, Lakeway, TX 78734",[]
Little Lonestar Academy,30.3656875,-97.9501875,"107 Ranch Rd 620 S Suite 300, Lakeway, TX 78734",[]
Elite Academy: Music Preschool - Lakeway,30.3898125,-97.9380625,"2903 Ranch Rd 620 N Suite C, Austin, TX 78734",[]
Little Sunshine's Playhouse and Preschool of Lakeway,30.3554375,-97.9778125,"1501 Lohmans Crossing Rd, Lakeway, TX 78734",[]
Lone Star School of Music,30.3540625,-97.9608125,"915 Ranch Rd 620 S, Lakeway, TX 78734",[]
Westlake Taekwondo Academy,30.2848125,-97.8276875,"1158 Lost Creek Blvd, Austin, TX 78746",[]
Forest Trail Elementary School,30.2810625,-97.8199375,"1203 S Capital of Texas Hwy, West Lake Hills, TX 78746",[]
Lost Creek Limited District (LCLD),30.2835625,-97.8335625,"1305 Quaker Ridge Dr, Austin, TX 78746",[]
Menchaca Elementary School,30.1415625,-97.8361875,"1218 Farm to Market 1626, Manchaca, TX 78652",[]
Bright Beginnings Schoolhouse,30.1370625,-97.8439375,"1600 Black Bear Dr Bldg #2, Manchaca, TX 78652",[]
The Marbridge School,30.1383125,-97.8539375,"2504 Bliss Spillar Rd, Manchaca, TX 78652",[]
Austin Christian Academy,30.140812500000003,-97.8320625,"1010 Farm to Market 1626, Austin, TX 78748",[]
Ashlie's Imagination Station Preschool,30.1344375,-97.8304375,"12502 Scissortail Dr, Manchaca, TX 78652",[]
Baranoff Elementary School,30.1539375,-97.8521875,"12009 Buckingham Gate Rd, Austin, TX 78748",[]
Headwaters School | Springs Campus,30.2088125,-97.8041875,"6305 Menchaca Rd, Austin, TX 78745",[]
Manchaca UMC CDC,30.140187500000003,-97.8321875,"1011 Farm to Market 1626, Manchaca, TX 78652",[]
Austin Educational Theatre,30.138687500000003,-97.8315625,"12300 Wirth Dr Unit E, Manchaca, TX 78652",[]
Honey Bear Cub Care,30.1364375,-97.8588125,"2601A Bliss Spillar Rd, Manchaca, TX 78652",[]
Joslin Elementary School,30.2278125,-97.7901875,"4500 Menchaca Rd, Austin, TX 78745",[]
The Goddard School of Austin,30.1490625,-97.8416875,"2111 Frate Barker Rd, Austin, TX 78748",[]
The Little Blue Montessori School,30.1678125,-97.8296875,"10415 Old Manchaca Rd, Austin, TX 78748",[]
Manor Excel Academy,30.3410625,-97.5499375,"600 E Parsons St, Manor, TX 78653",[]
Manor Elementary Early Learning Center,30.3585625,-97.5661875,"12904 Gregg Manor Rd, Manor, TX 78653",[]
Manor New Tech Middle School,30.3435625,-97.5741875,"12116 Joyce Turner Dr, Manor, TX 78653",[]
Compass Rose Destiny,30.3648125,-97.5310625,"14031 FM973, Manor, TX 78653",[]
"Manor Senior High School, Manor ISD",30.3824375,-97.5310625,"14832 FM973, Manor, TX 78653",[]
Lagos Elementary School,30.3310625,-97.5588125,"11817 Murchison St, Manor, TX 78653",[]
Manor New Technology High School,30.3448125,-97.5734375,"10323 US-290, Manor, TX 78653",[]
Manor High School,30.3530625,-97.5618125,"12700 Gregg Manor Rd, Manor, TX 78653",[]
ShadowGlen Elementary,30.3650625,-97.5403125,"12000 Shadowglen Trce, Manor, TX 78653",[]
Manor Middle School,30.3576875,-97.5624375,"12900 Gregg Manor Rd, Manor, TX 78653",[]
Mustang Ridge Police Department,30.0506875,-97.6919375,"12800 S Hwy 183 S, Buda, TX 78610",[]
Mustang Ridge City Hall,30.0506875,-97.6918125,"12800 S Hwy 183, Mustang Ridge, TX 78610",[]
Dollar General,30.0309375,-97.6761875,"17545 Camino Real, Mustang Ridge, TX 78610","['0% busy at 6\u202fAM.', '0% busy at 7\u202fAM.', '21% busy at 8\u202fAM.', '38% busy at 9\u202fAM.', '46% busy at 10\u202fAM.', '65% busy at 11\u202fAM.', '64% busy at 12\u202fPM.', '72% busy at 1\u202fPM.', '76% busy at 2\u202fPM.', '71% busy at 3\u202fPM.', '78% busy at 4\u202fPM.', '73% busy at 5\u202fPM.', '75% busy at 6\u202fPM.', '76% busy at 7\u202fPM.', '59% busy at 8\u202fPM.', '37% busy at 9\u202fPM.', '0% busy at 10\u202fPM.', '0% busy at 11\u202fPM.', '0% busy at 6\u202fAM.', '0% busy at 7\u202fAM.', '13% busy at 8\u202fAM.', '21% busy at 9\u202fAM.', '29% busy at 10\u202fAM.', '39% busy at 11\u202fAM.', '40% busy at 12\u202fPM.', '34% busy at 1\u202fPM.', '29% busy at 2\u202fPM.', '23% busy at 3\u202fPM.', '36% busy at 4\u202fPM.', '51% busy at 5\u202fPM.', '62% busy at 6\u202fPM.', '60% busy at 7\u202fPM.', '43% busy at 8\u202fPM.', '28% busy at 9\u202fPM.', '0% busy at 10\u202fPM.', '0% busy at 11\u202fPM.', '0% busy at 6\u202fAM.', '0% busy at 7\u202fAM.', '18% busy at 8\u202fAM.', '21% busy at 9\u202fAM.', '32% busy at 10\u202fAM.', '33% busy at 11\u202fAM.', '34% busy at 12\u202fPM.', '34% busy at 1\u202fPM.', '37% busy at 2\u202fPM.', '47% busy at 3\u202fPM.', '55% busy at 4\u202fPM.', '70% busy at 5\u202fPM.', '67% busy at 6\u202fPM.', '63% busy at 7\u202fPM.', '47% busy at 8\u202fPM.', '38% busy at 9\u202fPM.', '0% busy at 10\u202fPM.', '0% busy at 11\u202fPM.', '0% busy at 6\u202fAM.', '0% busy at 7\u202fAM.', '16% busy at 8\u202fAM.', '18% busy at 9\u202fAM.', '9% busy at 10\u202fAM.', '7% busy at 11\u202fAM.', '15% busy at 12\u202fPM.', '28% busy at 1\u202fPM.', '42% busy at 2\u202fPM.', '45% busy at 3\u202fPM.', '61% busy at 4\u202fPM.', '65% busy at 5\u202fPM.', '73% busy at 6\u202fPM.', '60% busy at 7\u202fPM.', '43% busy at 8\u202fPM.', '23% busy at 9\u202fPM.', '0% busy at 10\u202fPM.', '0% busy at 11\u202fPM.', '0% busy at 6\u202fAM.', '0% busy at 7\u202fAM.', '12% busy at 8\u202fAM.', '20% busy at 9\u202fAM.', '20% busy at 10\u202fAM.', '18% busy at 11\u202fAM.', '12% busy at 12\u202fPM.', '16% busy at 1\u202fPM.', '26% busy at 2\u202fPM.', '32% busy at 3\u202fPM.', '43% busy at 4\u202fPM.', '50% busy at 5\u202fPM.', '61% busy at 6\u202fPM.', '55% busy at 7\u202fPM.', '47% busy at 8\u202fPM.', '24% busy at 9\u202fPM.', '0% busy at 10\u202fPM.', '0% busy at 11\u202fPM.', '0% busy at 6\u202fAM.', '0% busy at 7\u202fAM.', '20% busy at 8\u202fAM.', '15% busy at 9\u202fAM.', '14% busy at 10\u202fAM.', '12% busy at 11\u202fAM.', '21% busy at 12\u202fPM.', '21% busy at 1\u202fPM.', '36% busy at 2\u202fPM.', '44% busy at 3\u202fPM.', '55% busy at 4\u202fPM.', '69% busy at 5\u202fPM.', '68% busy at 6\u202fPM.', '67% busy at 7\u202fPM.', '54% busy at 8\u202fPM.', '38% busy at 9\u202fPM.', '0% busy at 10\u202fPM.', '0% busy at 11\u202fPM.', '0% busy at 6\u202fAM.', '0% busy at 7\u202fAM.', '11% busy at 8\u202fAM.', '24% busy at 9\u202fAM.', 'Currently 83% busy, usually 40% busy.', '50% busy at 11\u202fAM.', '55% busy at 12\u202fPM.', '67% busy at 1\u202fPM.', '82% busy at 2\u202fPM.', '88% busy at 3\u202fPM.', '97% busy at 4\u202fPM.', '100% busy at 5\u202fPM.', '97% busy at 6\u202fPM.', '86% busy at 7\u202fPM.', '65% busy at 8\u202fPM.', '38% busy at 9\u202fPM.', '0% busy at 10\u202fPM.', '0% busy at 11\u202fPM.']"
Pflugerville Elementary School,30.4285625,-97.6131875,"701 Immanuel Rd, Pflugerville, TX 78660",[]
Windermere Elementary School,30.4649375,-97.6433125,"429 Grand Ave Pkwy, Pflugerville, TX 78660",[]
Highland Park Elementary School,30.477937500000003,-97.6145625,"428 Kingston Lacy Blvd Basecamp 1, Pflugerville, TX 78660",[]
Rowe Lane Elementary School,30.4775625,-97.5625625,"3112 Speidel Dr, Pflugerville, TX 78660",[]
"Barron Elementary School, PfISD",30.4234375,-97.6480625,"14850 Harris Ridge Blvd, Pflugerville, TX 78660",[]
Spring Hill Elementary School,30.4425625,-97.6450625,"600 S Heatherwilde Blvd, Pflugerville, TX 78660",[]
Brookhollow Elementary School,30.4528125,-97.6180625,"1200 N Railroad Ave, Pflugerville, TX 78660",[]
Timmerman Elementary School,30.4499375,-97.6323125,"412 Swenson Farms Blvd, Pflugerville, TX 78660",[]
Mott Elementary,30.4645625,-97.5474375,"20101 Hodde Ln, Pflugerville, TX 78660",[]
"PFLUGERVILLE MONTESSORI HOUSE OF CHILDREN, INC.",30.4480625,-97.6531875,"2500 W Pecan St, Pflugerville, TX 78660",[]
Riojas Elementary School,30.4671875,-97.5676875,"3400 Crispin Hall Ln, Pflugerville, TX 78660",[]
Wieland Elementary School,30.4226875,-97.6395625,"900 Tudor House Rd, Pflugerville, TX 78660",[]
Cele Middle School,30.4576875,-97.5484375,"6000 Cele Rd, Pflugerville, TX 78660",[]
Harmony Science Academy - Pflugerville,30.4390625,-97.6636875,"1421 Wells Branch Pkwy #200, Pflugerville, TX 78660",[]
Murchison Elementary School,30.4670625,-97.5869375,"2215 Kelly Ln, Pflugerville, TX 78660",[]
Travis County WCID - Point Venture,30.3880625,-97.9954375,"18606 Venture Dr, Point Venture, TX 78645",[]
Point Venture Pool,30.3801875,-97.9931875,"551 Venture Blvd S, Lago Vista, TX 78645","['0% busy at 6\u202fAM.', '20% busy at 7\u202fAM.', '20% busy at 8\u202fAM.', '6% busy at 9\u202fAM.', '26% busy at 10\u202fAM.', '46% busy at 11\u202fAM.', '100% busy at 12\u202fPM.', '66% busy at 1\u202fPM.', '60% busy at 2\u202fPM.', '33% busy at 3\u202fPM.', '40% busy at 4\u202fPM.', '53% busy at 5\u202fPM.', '20% busy at 6\u202fPM.', '13% busy at 7\u202fPM.', '13% busy at 8\u202fPM.', '13% busy at 9\u202fPM.', '0% busy at 10\u202fPM.', '0% busy at 11\u202fPM.', '0% busy at 6\u202fAM.', '13% busy at 7\u202fAM.', '20% busy at 8\u202fAM.', '46% busy at 9\u202fAM.', '60% busy at 10\u202fAM.', '73% busy at 11\u202fAM.', '46% busy at 12\u202fPM.', '60% busy at 1\u202fPM.', '33% busy at 2\u202fPM.', '13% busy at 3\u202fPM.', '0% busy at 4\u202fPM.', '0% busy at 5\u202fPM.', '6% busy at 6\u202fPM.', '26% busy at 7\u202fPM.', '40% busy at 8\u202fPM.', '26% busy at 9\u202fPM.', '0% busy at 10\u202fPM.', '0% busy at 11\u202fPM.', '0% busy at 6\u202fAM.', '0% busy at 7\u202fAM.', '0% busy at 8\u202fAM.', '6% busy at 9\u202fAM.', '20% busy at 10\u202fAM.', '20% busy at 11\u202fAM.', '26% busy at 12\u202fPM.', '46% busy at 1\u202fPM.', '26% busy at 2\u202fPM.', '33% busy at 3\u202fPM.', '13% busy at 4\u202fPM.', '13% busy at 5\u202fPM.', '0% busy at 6\u202fPM.', '13% busy at 7\u202fPM.', '33% busy at 8\u202fPM.', '46% busy at 9\u202fPM.', '0% busy at 10\u202fPM.', '0% busy at 11\u202fPM.', '0% busy at 6\u202fAM.', '6% busy at 7\u202fAM.', '0% busy at 8\u202fAM.', '13% busy at 9\u202fAM.', '13% busy at 10\u202fAM.', '26% busy at 11\u202fAM.', '20% busy at 12\u202fPM.', '6% busy at 1\u202fPM.', '6% busy at 2\u202fPM.', '20% busy at 3\u202fPM.', '40% busy at 4\u202fPM.', '20% busy at 5\u202fPM.', '20% busy at 6\u202fPM.', '33% busy at 7\u202fPM.', '40% busy at 8\u202fPM.', '13% busy at 9\u202fPM.', '0% busy at 10\u202fPM.', '0% busy at 11\u202fPM.', '0% busy at 6\u202fAM.', '13% busy at 7\u202fAM.', '0% busy at 8\u202fAM.', '13% busy at 9\u202fAM.', '26% busy at 10\u202fAM.', '40% busy at 11\u202fAM.', '26% busy at 12\u202fPM.', '13% busy at 1\u202fPM.', '6% busy at 2\u202fPM.', '6% busy at 3\u202fPM.', '26% busy at 4\u202fPM.', '60% busy at 5\u202fPM.', '66% busy at 6\u202fPM.', '26% busy at 7\u202fPM.', '6% busy at 8\u202fPM.', '0% busy at 9\u202fPM.', '0% busy at 10\u202fPM.', '0% busy at 11\u202fPM.', '0% busy at 6\u202fAM.', '33% busy at 7\u202fAM.', '73% busy at 8\u202fAM.', '73% busy at 9\u202fAM.', '93% busy at 10\u202fAM.', '93% busy at 11\u202fAM.', '73% busy at 12\u202fPM.', '60% busy at 1\u202fPM.', '20% busy at 2\u202fPM.', '20% busy at 3\u202fPM.', '20% busy at 4\u202fPM.', '20% busy at 5\u202fPM.', '6% busy at 6\u202fPM.', '20% busy at 7\u202fPM.', '46% busy at 8\u202fPM.', '80% busy at 9\u202fPM.', '0% busy at 10\u202fPM.', '0% busy at 11\u202fPM.']"
Captain Peteâ€™s Boathouse,30.3795625,-97.9898125,"18200 Lakepoint Cove, Point Venture, TX 78645","['0% busy at 6\u202fAM.', '0% busy at 7\u202fAM.', '0% busy at 8\u202fAM.', '0% busy at 9\u202fAM.', '0% busy at 10\u202fAM.', '37% busy at 11\u202fAM.', '57% busy at 12\u202fPM.', '66% busy at 1\u202fPM.', '64% busy at 2\u202fPM.', '60% busy at 3\u202fPM.', '58% busy at 4\u202fPM.', '59% busy at 5\u202fPM.', '54% busy at 6\u202fPM.', '47% busy at 7\u202fPM.', '32% busy at 8\u202fPM.', '18% busy at 9\u202fPM.', '0% busy at 10\u202fPM.', '0% busy at 11\u202fPM.', '0% busy at 6\u202fAM.', '0% busy at 7\u202fAM.', '0% busy at 8\u202fAM.', '0% busy at 9\u202fAM.', '0% busy at 10\u202fAM.', '4% busy at 11\u202fAM.', '5% busy at 12\u202fPM.', '9% busy at 1\u202fPM.', '11% busy at 2\u202fPM.', '10% busy at 3\u202fPM.', '12% busy at 4\u202fPM.', '12% busy at 5\u202fPM.', '13% busy at 6\u202fPM.', '12% busy at 7\u202fPM.', '12% busy at 8\u202fPM.', '9% busy at 9\u202fPM.', '0% busy at 10\u202fPM.', '0% busy at 11\u202fPM.', '0% busy at 6\u202fAM.', '0% busy at 7\u202fAM.', '0% busy at 8\u202fAM.', '0% busy at 9\u202fAM.', '0% busy at 10\u202fAM.', '1% busy at 11\u202fAM.', '3% busy at 12\u202fPM.', '2% busy at 1\u202fPM.', '4% busy at 2\u202fPM.', '3% busy at 3\u202fPM.', '5% busy at 4\u202fPM.', '6% busy at 5\u202fPM.', '12% busy at 6\u202fPM.', '11% busy at 7\u202fPM.', '10% busy at 8\u202fPM.', '6% busy at 9\u202fPM.', '0% busy at 10\u202fPM.', '0% busy at 11\u202fPM.', '0% busy at 6\u202fAM.', '0% busy at 7\u202fAM.', '0% busy at 8\u202fAM.', '0% busy at 9\u202fAM.', '0% busy at 10\u202fAM.', '5% busy at 11\u202fAM.', '6% busy at 12\u202fPM.', '8% busy at 1\u202fPM.', '6% busy at 2\u202fPM.', '9% busy at 3\u202fPM.', '13% busy at 4\u202fPM.', '20% busy at 5\u202fPM.', '28% busy at 6\u202fPM.', '28% busy at 7\u202fPM.', '22% busy at 8\u202fPM.', '9% busy at 9\u202fPM.', '0% busy at 10\u202fPM.', '0% busy at 11\u202fPM.', '0% busy at 6\u202fAM.', '0% busy at 7\u202fAM.', '0% busy at 8\u202fAM.', '0% busy at 9\u202fAM.', '0% busy at 10\u202fAM.', '9% busy at 11\u202fAM.', '15% busy at 12\u202fPM.', '18% busy at 1\u202fPM.', '17% busy at 2\u202fPM.', '13% busy at 3\u202fPM.', '11% busy at 4\u202fPM.', '16% busy at 5\u202fPM.', '20% busy at 6\u202fPM.', '26% busy at 7\u202fPM.', '25% busy at 8\u202fPM.', '15% busy at 9\u202fPM.', '0% busy at 10\u202fPM.', '0% busy at 11\u202fPM.', '0% busy at 6\u202fAM.', '0% busy at 7\u202fAM.', '0% busy at 8\u202fAM.', '0% busy at 9\u202fAM.', '0% busy at 10\u202fAM.', '23% busy at 11\u202fAM.', '31% busy at 12\u202fPM.', '31% busy at 1\u202fPM.', '32% busy at 2\u202fPM.', '34% busy at 3\u202fPM.', '36% busy at 4\u202fPM.', '42% busy at 5\u202fPM.', '51% busy at 6\u202fPM.', '62% busy at 7\u202fPM.', '53% busy at 8\u202fPM.', '37% busy at 9\u202fPM.', '0% busy at 10\u202fPM.', '0% busy at 11\u202fPM.', '0% busy at 6\u202fAM.', '0% busy at 7\u202fAM.', '0% busy at 8\u202fAM.', '0% busy at 9\u202fAM.', '0% busy at 10\u202fAM.', 'Currently 84% busy, usually 38% busy.', '60% busy at 12\u202fPM.', '78% busy at 1\u202fPM.', '78% busy at 2\u202fPM.', '77% busy at 3\u202fPM.', '83% busy at 4\u202fPM.', '95% busy at 5\u202fPM.', '100% busy at 6\u202fPM.', '85% busy at 7\u202fPM.', '72% busy at 8\u202fPM.', '48% busy at 9\u202fPM.', '0% busy at 10\u202fPM.', '0% busy at 11\u202fPM.']"
Point Venture Village Office,30.3879375,-97.9956875,"18606 Venture Dr, Leander, TX 78645",[]
4Points Academy,30.3876875,-97.8848125,"5145 Ranch Rd 620 N Suite F-110, Austin, TX 78732",[]
Eanes Elementary School,30.2830625,-97.8111875,"4101 Bee Caves Rd, West Lake Hills, TX 78746",[]
Hill Country Middle School,30.2706875,-97.8034375,"1300 Walsh Tarlton Ln, Austin, TX 78746",[]
"Synergy Pilates Rollingwood Austin, Texas",30.2634375,-97.7829375,"2525 Wallingwood Dr Suite 901, Austin, TX 78746","['0% busy at 5\u202fAM.', '0% busy at 6\u202fAM.', '6% busy at 7\u202fAM.', '12% busy at 8\u202fAM.', '12% busy at 9\u202fAM.', '6% busy at 10\u202fAM.', '12% busy at 11\u202fAM.', '6% busy at 12\u202fPM.', '0% busy at 1\u202fPM.', '0% busy at 2\u202fPM.', '18% busy at 3\u202fPM.', '25% busy at 4\u202fPM.', '0% busy at 5\u202fPM.', '0% busy at 6\u202fPM.', '0% busy at 7\u202fPM.', '0% busy at 8\u202fPM.', '0% busy at 9\u202fPM.', '0% busy at 10\u202fPM.', '0% busy at 5\u202fAM.', '37% busy at 6\u202fAM.', '18% busy at 7\u202fAM.', '6% busy at 8\u202fAM.', '0% busy at 9\u202fAM.', '12% busy at 10\u202fAM.', '18% busy at 11\u202fAM.', '37% busy at 12\u202fPM.', '25% busy at 1\u202fPM.', '18% busy at 2\u202fPM.', '6% busy at 3\u202fPM.', '0% busy at 4\u202fPM.', '0% busy at 5\u202fPM.', '6% busy at 6\u202fPM.', '18% busy at 7\u202fPM.', '0% busy at 8\u202fPM.', '0% busy at 9\u202fPM.', '0% busy at 10\u202fPM.', '0% busy at 5\u202fAM.', '6% busy at 6\u202fAM.', '6% busy at 7\u202fAM.', '0% busy at 8\u202fAM.', '6% busy at 9\u202fAM.', '12% busy at 10\u202fAM.', '6% busy at 11\u202fAM.', '0% busy at 12\u202fPM.', '6% busy at 1\u202fPM.', '12% busy at 2\u202fPM.', '31% busy at 3\u202fPM.', '12% busy at 4\u202fPM.', '6% busy at 5\u202fPM.', '0% busy at 6\u202fPM.', '6% busy at 7\u202fPM.', '0% busy at 8\u202fPM.', '0% busy at 9\u202fPM.', '0% busy at 10\u202fPM.', '0% busy at 5\u202fAM.', '37% busy at 6\u202fAM.', '31% busy at 7\u202fAM.', '31% busy at 8\u202fAM.', '50% busy at 9\u202fAM.', '37% busy at 10\u202fAM.', '50% busy at 11\u202fAM.', '81% busy at 12\u202fPM.', '81% busy at 1\u202fPM.', '50% busy at 2\u202fPM.', '25% busy at 3\u202fPM.', '12% busy at 4\u202fPM.', '12% busy at 5\u202fPM.', '37% busy at 6\u202fPM.', '31% busy at 7\u202fPM.', '0% busy at 8\u202fPM.', '0% busy at 9\u202fPM.', '0% busy at 10\u202fPM.', '0% busy at 5\u202fAM.', '12% busy at 6\u202fAM.', '18% busy at 7\u202fAM.', '18% busy at 8\u202fAM.', '31% busy at 9\u202fAM.', '37% busy at 10\u202fAM.', '25% busy at 11\u202fAM.', '12% busy at 12\u202fPM.', '31% busy at 1\u202fPM.', '37% busy at 2\u202fPM.', '37% busy at 3\u202fPM.', '25% busy at 4\u202fPM.', '25% busy at 5\u202fPM.', '12% busy at 6\u202fPM.', '6% busy at 7\u202fPM.', '0% busy at 8\u202fPM.', '0% busy at 9\u202fPM.', '0% busy at 10\u202fPM.', '0% busy at 5\u202fAM.', '6% busy at 6\u202fAM.', '18% busy at 7\u202fAM.', '37% busy at 8\u202fAM.', '25% busy at 9\u202fAM.', '37% busy at 10\u202fAM.', '37% busy at 11\u202fAM.', '43% busy at 12\u202fPM.', '18% busy at 1\u202fPM.', '18% busy at 2\u202fPM.', '31% busy at 3\u202fPM.', '62% busy at 4\u202fPM.', '31% busy at 5\u202fPM.', '12% busy at 6\u202fPM.', '6% busy at 7\u202fPM.', '0% busy at 8\u202fPM.', '0% busy at 9\u202fPM.', '0% busy at 10\u202fPM.', '0% busy at 5\u202fAM.', '25% busy at 6\u202fAM.', '12% busy at 7\u202fAM.', '6% busy at 8\u202fAM.', '0% busy at 9\u202fAM.', '6% busy at 10\u202fAM.', '18% busy at 11\u202fAM.', '43% busy at 12\u202fPM.', '100% busy at 1\u202fPM.', '68% busy at 2\u202fPM.', '68% busy at 3\u202fPM.', '43% busy at 4\u202fPM.', '0% busy at 5\u202fPM.', '0% busy at 6\u202fPM.', '0% busy at 7\u202fPM.', '0% busy at 8\u202fPM.', '0% busy at 9\u202fPM.', '0% busy at 10\u202fPM.']"
Westlake High School,30.2755625,-97.8125625,"4100 Westbank Dr, Austin, TX 78746",[]
Rollingwood Police Department,30.2756875,-97.7886875,"403 Nixon Dr, Austin, TX 78746",[]
Claude Berkman Elementary School,30.5103125,-97.6840625,"400 W Anderson Ave, Round Rock, TX 78664",[]
C.D. Fulkes Middle School,30.5115625,-97.6829375,"300 W Anderson Ave, Round Rock, TX 78664",[]
Upward Bound Montessori School,30.512187500000003,-97.6800625,"101 Fannin Ave, Round Rock, TX 78664",[]
Success High School,30.4958125,-97.6719375,"500 Gattis School Rd, Round Rock, TX 78664",[]
Round Rock High School,30.5086875,-97.6989375,"201 Deep Wood Dr, Round Rock, TX 78681",[]
Robertson Elementary School,30.5239375,-97.6633125,"1415 Bayland St, Round Rock, TX 78664",[]
Neysa Callison Elementary School,30.5020625,-97.6590625,"1750 Thompson Trail, Round Rock, TX 78664",[]
Deep Wood Elementary School,30.5003125,-97.6971875,"705 St Williams Ave, Round Rock, TX 78681",[]
TRILLIUM MONTESSORI,30.5168125,-97.6935625,"1000 Sam Bass Cir, Round Rock, TX 78681",[]
PFC Robert P. Hernandez Middle School,30.5295625,-97.6663125,"1901 Sunrise Rd, Round Rock, TX 78664",[]
Round Rock Montessori School,30.5224375,-97.7043125,"1818 Sam Bass Rd, Round Rock, TX 78681",[]
Bluebonnet Elementary School,30.4901875,-97.6911875,"1010 Chisholm Valley Dr, Round Rock, TX 78681",[]
Texas Spanish Academy,30.5070625,-97.6795625,"201 W Bagdad Ave, Round Rock, TX 78664",[]
Round Rock Christian Academy,30.5088125,-97.6926875,"800 Westwood Dr, Round Rock, TX 78681",[]
Austin Medical Assistant School - Round Rock,30.513687500000003,-97.6853125,"894 Summit St #108, Round Rock, TX 78664",[]
San Leanna Community Center,30.139312500000003,-97.8208125,"11906 Sleepy Hollow Rd, Manchaca, TX 78652",[]
Whole Life Learning Center,30.1471875,-97.7988125,"10801 Old San Antonio Rd, Austin, TX 78748",[]
Sunfield Elementary,30.0811875,-97.8084375,"155 Vista Gardens Dr, Buda, TX 78610",[]
Cowan Elementary School,30.1886875,-97.8334375,"2817 Kentish Dr, Austin, TX 78748",[]
Del Valle Discipline Alternative Education,30.1903125,-97.6999375,"4305 McKinney Falls Pkwy, Austin, TX 78744",[]
Bailey Middle School,30.1640625,-97.8728125,"4020 Lost Oasis Hollow, Austin, TX 78739",[]
Primrose School of Shady Hollow,30.1490625,-97.8544375,"12341 Brodie Ln, Austin, TX 78748",[]
Valor South Austin,30.1756875,-97.8889375,"11720 S MoPac Expy, Austin, TX 78739",[]
Baldwin Elementary School,30.1848125,-97.9233125,"12200 Meridian Park Blvd, Austin, TX 78739",[]
Villages of Shady Hollow Pool and Amenity Center,30.1540625,-97.8543125,"12006 Gatling Gun Ln, Austin, TX 78748","['0% busy at 5\u202fAM.', '17% busy at 6\u202fAM.', '17% busy at 7\u202fAM.', '25% busy at 8\u202fAM.', '21% busy at 9\u202fAM.', '10% busy at 10\u202fAM.', '10% busy at 11\u202fAM.', '14% busy at 12\u202fPM.', '25% busy at 1\u202fPM.', '17% busy at 2\u202fPM.', '28% busy at 3\u202fPM.', '32% busy at 4\u202fPM.', '28% busy at 5\u202fPM.', '21% busy at 6\u202fPM.', '10% busy at 7\u202fPM.', '10% busy at 8\u202fPM.', '21% busy at 9\u202fPM.', '0% busy at 10\u202fPM.', '0% busy at 5\u202fAM.', '25% busy at 6\u202fAM.', '21% busy at 7\u202fAM.', '17% busy at 8\u202fAM.', '32% busy at 9\u202fAM.', '57% busy at 10\u202fAM.', '53% busy at 11\u202fAM.', '25% busy at 12\u202fPM.', '21% busy at 1\u202fPM.', '25% busy at 2\u202fPM.', '50% busy at 3\u202fPM.', '32% busy at 4\u202fPM.', '35% busy at 5\u202fPM.', '17% busy at 6\u202fPM.', '14% busy at 7\u202fPM.', '14% busy at 8\u202fPM.', '14% busy at 9\u202fPM.', '0% busy at 10\u202fPM.', '0% busy at 5\u202fAM.', '3% busy at 6\u202fAM.', '10% busy at 7\u202fAM.', '17% busy at 8\u202fAM.', '10% busy at 9\u202fAM.', '17% busy at 10\u202fAM.', '32% busy at 11\u202fAM.', '32% busy at 12\u202fPM.', '42% busy at 1\u202fPM.', '39% busy at 2\u202fPM.', '64% busy at 3\u202fPM.', '39% busy at 4\u202fPM.', '28% busy at 5\u202fPM.', '25% busy at 6\u202fPM.', '10% busy at 7\u202fPM.', '7% busy at 8\u202fPM.', '10% busy at 9\u202fPM.', '0% busy at 10\u202fPM.', '0% busy at 5\u202fAM.', '10% busy at 6\u202fAM.', '17% busy at 7\u202fAM.', '14% busy at 8\u202fAM.', '21% busy at 9\u202fAM.', '14% busy at 10\u202fAM.', '10% busy at 11\u202fAM.', '10% busy at 12\u202fPM.', '21% busy at 1\u202fPM.', '17% busy at 2\u202fPM.', '32% busy at 3\u202fPM.', '32% busy at 4\u202fPM.', '28% busy at 5\u202fPM.', '10% busy at 6\u202fPM.', '7% busy at 7\u202fPM.', '0% busy at 8\u202fPM.', '0% busy at 9\u202fPM.', '0% busy at 10\u202fPM.', '0% busy at 5\u202fAM.', '7% busy at 6\u202fAM.', '7% busy at 7\u202fAM.', '17% busy at 8\u202fAM.', '21% busy at 9\u202fAM.', '42% busy at 10\u202fAM.', '39% busy at 11\u202fAM.', '32% busy at 12\u202fPM.', '32% busy at 1\u202fPM.', '25% busy at 2\u202fPM.', '35% busy at 3\u202fPM.', '14% busy at 4\u202fPM.', '17% busy at 5\u202fPM.', '25% busy at 6\u202fPM.', '46% busy at 7\u202fPM.', '35% busy at 8\u202fPM.', '17% busy at 9\u202fPM.', '0% busy at 10\u202fPM.', '0% busy at 5\u202fAM.', '14% busy at 6\u202fAM.', '17% busy at 7\u202fAM.', '7% busy at 8\u202fAM.', '7% busy at 9\u202fAM.', '10% busy at 10\u202fAM.', '14% busy at 11\u202fAM.', '28% busy at 12\u202fPM.', '35% busy at 1\u202fPM.', '46% busy at 2\u202fPM.', '46% busy at 3\u202fPM.', '35% busy at 4\u202fPM.', '32% busy at 5\u202fPM.', '39% busy at 6\u202fPM.', '42% busy at 7\u202fPM.', '46% busy at 8\u202fPM.', '46% busy at 9\u202fPM.', '0% busy at 10\u202fPM.', '0% busy at 5\u202fAM.', '25% busy at 6\u202fAM.', '25% busy at 7\u202fAM.', '21% busy at 8\u202fAM.', '25% busy at 9\u202fAM.', '32% busy at 10\u202fAM.', '32% busy at 11\u202fAM.', '35% busy at 12\u202fPM.', '35% busy at 1\u202fPM.', '46% busy at 2\u202fPM.', '57% busy at 3\u202fPM.', '78% busy at 4\u202fPM.', '85% busy at 5\u202fPM.', '100% busy at 6\u202fPM.', '78% busy at 7\u202fPM.', '53% busy at 8\u202fPM.', '46% busy at 9\u202fPM.', '0% busy at 10\u202fPM.']"
James Bowie High School,30.187687500000003,-97.8584375,"4103 W Slaughter Ln, Austin, TX 78749",[]
Bailey MS Band,30.1641875,-97.8724375,"4020 Lost Oasis Hollow, Austin, TX 78739",[]
Shady Hollow HOA Community Center,30.169937500000003,-97.8535625,"3303 Doe Run, Austin, TX 78748",[]
Steiner Ranch Elementary School,30.3793125,-97.8841875,"4001 N Quinlan Park Rd, Austin, TX 78732",[]
School in the Hills Montessori,30.3691875,-97.8935625,"2900 N Quinlan Park Rd #430, Austin, TX 78732",[]
The Goddard School of Steiner Ranch,30.3885625,-97.8856875,"5145 N FM 620 Building H, Austin, TX 78732",[]
River Ridge Elementary School,30.3460625,-97.9163125,"12900 Tierra Grande Trail, Austin, TX 78732",[]
Laura Welch Bush Elementary School,30.3660625,-97.9004375,"12600 Country Trails Ln, Austin, TX 78732",[]
Canyon Ridge Middle School,30.3648125,-97.9029375,"12601 Country Trails Ln, Austin, TX 78732",[]
Premier Martial Arts Steiner Ranch,30.388687500000003,-97.8836875,"5145 N FM 620 Ste B-120, Austin, TX 78732",[]
Steiner Christian Preschool,30.3926875,-97.8885625,"5000 Marshall Ford Rd, Austin, TX 78732",[]
Meritage at Steiner Ranch,30.3805625,-97.8778125,"4500 Steiner Ranch Blvd, Austin, TX 78732",[]
Steiner Ranch Elementary Parking,30.3784375,-97.8838125,"4001 N Quinlan Park Rd, Austin, TX 78732",[]
Bridge at Steiner Ranch Apartments,30.3833125,-97.8736875,"4800 Steiner Ranch Blvd, Austin, TX 78732",[]
School In The Hills River Place,30.3946875,-97.8488125,"10819 Ranch Rd 2222, Austin, TX 78730",[]
Steiner Ranch Steakhouse,30.390187500000003,-97.8715625,"5424 Steiner Ranch Blvd, Austin, TX 78732","['0% busy at 6\u202fAM.', '0% busy at 7\u202fAM.', '0% busy at 8\u202fAM.', '0% busy at 9\u202fAM.', '59% busy at 10\u202fAM.', '90% busy at 11\u202fAM.', '100% busy at 12\u202fPM.', '96% busy at 1\u202fPM.', '76% busy at 2\u202fPM.', '54% busy at 3\u202fPM.', '35% busy at 4\u202fPM.', '28% busy at 5\u202fPM.', '27% busy at 6\u202fPM.', '25% busy at 7\u202fPM.', '18% busy at 8\u202fPM.', '13% busy at 9\u202fPM.', '0% busy at 10\u202fPM.', '0% busy at 11\u202fPM.', '0% busy at 6\u202fAM.', '0% busy at 7\u202fAM.', '0% busy at 8\u202fAM.', '0% busy at 9\u202fAM.', '0% busy at 10\u202fAM.', '0% busy at 11\u202fAM.', '0% busy at 12\u202fPM.', '0% busy at 1\u202fPM.', '0% busy at 2\u202fPM.', '0% busy at 3\u202fPM.', '9% busy at 4\u202fPM.', '17% busy at 5\u202fPM.', '21% busy at 6\u202fPM.', '20% busy at 7\u202fPM.', '14% busy at 8\u202fPM.', '6% busy at 9\u202fPM.', '0% busy at 10\u202fPM.', '0% busy at 11\u202fPM.', '0% busy at 6\u202fAM.', '0% busy at 7\u202fAM.', '0% busy at 8\u202fAM.', '0% busy at 9\u202fAM.', '0% busy at 10\u202fAM.', '0% busy at 11\u202fAM.', '0% busy at 12\u202fPM.', '0% busy at 1\u202fPM.', '0% busy at 2\u202fPM.', '0% busy at 3\u202fPM.', '11% busy at 4\u202fPM.', '17% busy at 5\u202fPM.', '22% busy at 6\u202fPM.', '24% busy at 7\u202fPM.', '22% busy at 8\u202fPM.', '14% busy at 9\u202fPM.', '0% busy at 10\u202fPM.', '0% busy at 11\u202fPM.', '0% busy at 6\u202fAM.', '0% busy at 7\u202fAM.', '0% busy at 8\u202fAM.', '0% busy at 9\u202fAM.', '0% busy at 10\u202fAM.', '0% busy at 11\u202fAM.', '0% busy at 12\u202fPM.', '0% busy at 1\u202fPM.', '0% busy at 2\u202fPM.', '0% busy at 3\u202fPM.', '7% busy at 4\u202fPM.', '18% busy at 5\u202fPM.', '30% busy at 6\u202fPM.', '35% busy at 7\u202fPM.', '33% busy at 8\u202fPM.', '19% busy at 9\u202fPM.', '0% busy at 10\u202fPM.', '0% busy at 11\u202fPM.', '0% busy at 6\u202fAM.', '0% busy at 7\u202fAM.', '0% busy at 8\u202fAM.', '0% busy at 9\u202fAM.', '0% busy at 10\u202fAM.', '0% busy at 11\u202fAM.', '0% busy at 12\u202fPM.', '0% busy at 1\u202fPM.', '0% busy at 2\u202fPM.', '0% busy at 3\u202fPM.', '9% busy at 4\u202fPM.', '19% busy at 5\u202fPM.', '29% busy at 6\u202fPM.', '30% busy at 7\u202fPM.', '26% busy at 8\u202fPM.', '19% busy at 9\u202fPM.', '0% busy at 10\u202fPM.', '0% busy at 11\u202fPM.', '0% busy at 6\u202fAM.', '0% busy at 7\u202fAM.', '0% busy at 8\u202fAM.', '0% busy at 9\u202fAM.', '0% busy at 10\u202fAM.', '0% busy at 11\u202fAM.', '0% busy at 12\u202fPM.', '0% busy at 1\u202fPM.', '0% busy at 2\u202fPM.', '0% busy at 3\u202fPM.', '12% busy at 4\u202fPM.', '30% busy at 5\u202fPM.', '47% busy at 6\u202fPM.', '59% busy at 7\u202fPM.', '57% busy at 8\u202fPM.', '47% busy at 9\u202fPM.', '28% busy at 10\u202fPM.', '0% busy at 11\u202fPM.', '0% busy at 6\u202fAM.', '0% busy at 7\u202fAM.', '0% busy at 8\u202fAM.', '0% busy at 9\u202fAM.', '0% busy at 10\u202fAM.', '0% busy at 11\u202fAM.', '0% busy at 12\u202fPM.', '0% busy at 1\u202fPM.', '0% busy at 2\u202fPM.', '14% busy at 3\u202fPM.', '26% busy at 4\u202fPM.', '48% busy at 5\u202fPM.', '61% busy at 6\u202fPM.', '68% busy at 7\u202fPM.', '62% busy at 8\u202fPM.', '44% busy at 9\u202fPM.', '29% busy at 10\u202fPM.', '0% busy at 11\u202fPM.']"
Sunset Valley Elementary School,30.227937500000003,-97.8066875,"3000 Jones Rd, Austin, TX 78745",[]
Austin Montessori School - Sunset Trail Campus,30.2276875,-97.8050625,"5006 Sunset Trail, Austin, TX 78745",[]
Valley View Elementary School,30.2826875,-97.8210625,"1201 S Capital of Texas Hwy, Austin, TX 78746",[]
Austin ISD Transportation South,30.2306875,-97.8133125,"3300 Jones Rd, Sunset Valley, TX 78745",[]
BJ's Restaurant & Brewhouse,30.2316875,-97.8169375,"5207 Brodie Ln #300, Sunset Valley, TX 78745","['0% busy at 6\u202fAM.', '0% busy at 7\u202fAM.', '0% busy at 8\u202fAM.', '0% busy at 9\u202fAM.', '0% busy at 10\u202fAM.', '27% busy at 11\u202fAM.', '38% busy at 12\u202fPM.', '49% busy at 1\u202fPM.', '57% busy at 2\u202fPM.', '61% busy at 3\u202fPM.', '66% busy at 4\u202fPM.', '67% busy at 5\u202fPM.', '70% busy at 6\u202fPM.', '64% busy at 7\u202fPM.', '63% busy at 8\u202fPM.', '55% busy at 9\u202fPM.', '46% busy at 10\u202fPM.', '0% busy at 11\u202fPM.', '0% busy at 6\u202fAM.', '0% busy at 7\u202fAM.', '0% busy at 8\u202fAM.', '0% busy at 9\u202fAM.', '0% busy at 10\u202fAM.', '34% busy at 11\u202fAM.', '43% busy at 12\u202fPM.', '40% busy at 1\u202fPM.', '34% busy at 2\u202fPM.', '36% busy at 3\u202fPM.', '45% busy at 4\u202fPM.', '63% busy at 5\u202fPM.', '60% busy at 6\u202fPM.', '61% busy at 7\u202fPM.', '53% busy at 8\u202fPM.', '50% busy at 9\u202fPM.', '43% busy at 10\u202fPM.', '37% busy at 11\u202fPM.', '0% busy at 6\u202fAM.', '0% busy at 7\u202fAM.', '0% busy at 8\u202fAM.', '0% busy at 9\u202fAM.', '0% busy at 10\u202fAM.', '21% busy at 11\u202fAM.', '32% busy at 12\u202fPM.', '38% busy at 1\u202fPM.', '32% busy at 2\u202fPM.', '30% busy at 3\u202fPM.', '26% busy at 4\u202fPM.', '33% busy at 5\u202fPM.', '41% busy at 6\u202fPM.', '52% busy at 7\u202fPM.', '52% busy at 8\u202fPM.', '52% busy at 9\u202fPM.', '48% busy at 10\u202fPM.', '37% busy at 11\u202fPM.', '0% busy at 6\u202fAM.', '0% busy at 7\u202fAM.', '0% busy at 8\u202fAM.', '0% busy at 9\u202fAM.', '0% busy at 10\u202fAM.', '32% busy at 11\u202fAM.', '40% busy at 12\u202fPM.', '48% busy at 1\u202fPM.', '45% busy at 2\u202fPM.', '50% busy at 3\u202fPM.', '52% busy at 4\u202fPM.', '60% busy at 5\u202fPM.', '62% busy at 6\u202fPM.', '66% busy at 7\u202fPM.', '61% busy at 8\u202fPM.', '51% busy at 9\u202fPM.', '36% busy at 10\u202fPM.', '22% busy at 11\u202fPM.', '0% busy at 6\u202fAM.', '0% busy at 7\u202fAM.', '0% busy at 8\u202fAM.', '0% busy at 9\u202fAM.', '0% busy at 10\u202fAM.', '28% busy at 11\u202fAM.', '38% busy at 12\u202fPM.', '36% busy at 1\u202fPM.', '37% busy at 2\u202fPM.', '40% busy at 3\u202fPM.', '51% busy at 4\u202fPM.', '65% busy at 5\u202fPM.', '75% busy at 6\u202fPM.', '79% busy at 7\u202fPM.', '74% busy at 8\u202fPM.', '59% busy at 9\u202fPM.', '43% busy at 10\u202fPM.', '32% busy at 11\u202fPM.', '0% busy at 6\u202fAM.', '0% busy at 7\u202fAM.', '0% busy at 8\u202fAM.', '0% busy at 9\u202fAM.', '0% busy at 10\u202fAM.', '37% busy at 11\u202fAM.', '50% busy at 12\u202fPM.', '51% busy at 1\u202fPM.', '48% busy at 2\u202fPM.', '49% busy at 3\u202fPM.', '54% busy at 4\u202fPM.', '68% busy at 5\u202fPM.', '84% busy at 6\u202fPM.', '100% busy at 7\u202fPM.', '95% busy at 8\u202fPM.', '86% busy at 9\u202fPM.', '66% busy at 10\u202fPM.', '44% busy at 11\u202fPM.', '0% busy at 6\u202fAM.', '0% busy at 7\u202fAM.', '0% busy at 8\u202fAM.', '0% busy at 9\u202fAM.', '0% busy at 10\u202fAM.', 'Currently 31% busy, usually 34% busy.', '59% busy at 12\u202fPM.', '74% busy at 1\u202fPM.', '82% busy at 2\u202fPM.', '78% busy at 3\u202fPM.', '77% busy at 4\u202fPM.', '79% busy at 5\u202fPM.', '84% busy at 6\u202fPM.', '88% busy at 7\u202fPM.', '82% busy at 8\u202fPM.', '68% busy at 9\u202fPM.', '49% busy at 10\u202fPM.', '32% busy at 11\u202fPM.']"
Music & Arts,30.2301875,-97.8153125,"5207 Brodie Ln #220, Sunset Valley, TX 78745",[]
Sunset Valley Police,30.2281875,-97.8101875,"2 Lone Oak Trail, Sunset Valley, TX 78745",[]
Serene Hills Elementary School,30.3481875,-97.9965625,"3301 Serene Hills Dr, Austin, TX 78738",[]
Lake Travis STEM Academy,30.4604375,-97.8275625,"3315 El Salido Pkwy, Cedar Park, TX 78613",[]
Purple Bee,30.4475625,-97.9051875,"8117 Lime Creek Rd, Volente, TX 78641","['0% busy at 6\u202fAM.', '0% busy at 7\u202fAM.', '0% busy at 8\u202fAM.', '14% busy at 9\u202fAM.', '19% busy at 10\u202fAM.', '14% busy at 11\u202fAM.', '19% busy at 12\u202fPM.', '19% busy at 1\u202fPM.', '33% busy at 2\u202fPM.', '57% busy at 3\u202fPM.', '47% busy at 4\u202fPM.', '33% busy at 5\u202fPM.', '38% busy at 6\u202fPM.', '52% busy at 7\u202fPM.', '57% busy at 8\u202fPM.', '52% busy at 9\u202fPM.', '28% busy at 10\u202fPM.', '0% busy at 11\u202fPM.', '0% busy at 6\u202fAM.', '0% busy at 7\u202fAM.', '0% busy at 8\u202fAM.', '0% busy at 9\u202fAM.', '4% busy at 10\u202fAM.', '0% busy at 11\u202fAM.', '4% busy at 12\u202fPM.', '14% busy at 1\u202fPM.', '19% busy at 2\u202fPM.', '33% busy at 3\u202fPM.', '23% busy at 4\u202fPM.', '19% busy at 5\u202fPM.', '14% busy at 6\u202fPM.', '23% busy at 7\u202fPM.', '23% busy at 8\u202fPM.', '14% busy at 9\u202fPM.', '9% busy at 10\u202fPM.', '0% busy at 11\u202fPM.', '0% busy at 6\u202fAM.', '0% busy at 7\u202fAM.', '0% busy at 8\u202fAM.', '28% busy at 9\u202fAM.', '33% busy at 10\u202fAM.', '19% busy at 11\u202fAM.', '14% busy at 12\u202fPM.', '23% busy at 1\u202fPM.', '19% busy at 2\u202fPM.', '9% busy at 3\u202fPM.', '4% busy at 4\u202fPM.', '14% busy at 5\u202fPM.', '4% busy at 6\u202fPM.', '0% busy at 7\u202fPM.', '9% busy at 8\u202fPM.', '19% busy at 9\u202fPM.', '38% busy at 10\u202fPM.', '0% busy at 11\u202fPM.', '0% busy at 6\u202fAM.', '0% busy at 7\u202fAM.', '0% busy at 8\u202fAM.', '14% busy at 9\u202fAM.', '28% busy at 10\u202fAM.', '14% busy at 11\u202fAM.', '4% busy at 12\u202fPM.', '0% busy at 1\u202fPM.', '0% busy at 2\u202fPM.', '0% busy at 3\u202fPM.', '0% busy at 4\u202fPM.', '4% busy at 5\u202fPM.', '4% busy at 6\u202fPM.', '14% busy at 7\u202fPM.', '28% busy at 8\u202fPM.', '52% busy at 9\u202fPM.', '52% busy at 10\u202fPM.', '0% busy at 11\u202fPM.', '0% busy at 6\u202fAM.', '0% busy at 7\u202fAM.', '0% busy at 8\u202fAM.', '0% busy at 9\u202fAM.', '0% busy at 10\u202fAM.', '4% busy at 11\u202fAM.', '9% busy at 12\u202fPM.', '9% busy at 1\u202fPM.', '14% busy at 2\u202fPM.', '9% busy at 3\u202fPM.', '23% busy at 4\u202fPM.', '28% busy at 5\u202fPM.', '57% busy at 6\u202fPM.', '33% busy at 7\u202fPM.', '28% busy at 8\u202fPM.', '14% busy at 9\u202fPM.', '14% busy at 10\u202fPM.', '0% busy at 11\u202fPM.', '0% busy at 6\u202fAM.', '0% busy at 7\u202fAM.', '0% busy at 8\u202fAM.', '4% busy at 9\u202fAM.', '14% busy at 10\u202fAM.', '14% busy at 11\u202fAM.', '23% busy at 12\u202fPM.', '19% busy at 1\u202fPM.', '23% busy at 2\u202fPM.', '9% busy at 3\u202fPM.', '4% busy at 4\u202fPM.', '4% busy at 5\u202fPM.', '4% busy at 6\u202fPM.', '19% busy at 7\u202fPM.', '23% busy at 8\u202fPM.', '33% busy at 9\u202fPM.', '38% busy at 10\u202fPM.', '0% busy at 11\u202fPM.', '0% busy at 6\u202fAM.', '0% busy at 7\u202fAM.', '0% busy at 8\u202fAM.', '9% busy at 9\u202fAM.', '23% busy at 10\u202fAM.', '9% busy at 11\u202fAM.', '4% busy at 12\u202fPM.', '4% busy at 1\u202fPM.', '0% busy at 2\u202fPM.', '0% busy at 3\u202fPM.', '4% busy at 4\u202fPM.', '19% busy at 5\u202fPM.', '14% busy at 6\u202fPM.', '28% busy at 7\u202fPM.', '42% busy at 8\u202fPM.', '66% busy at 9\u202fPM.', '100% busy at 10\u202fPM.', '0% busy at 11\u202fPM.']"
Carpe Diem Private Preschool - Cedar Park,30.5445625,-97.7935625,"14009 Ronald Reagan Blvd, Volente, TX 78641",[]
Lake Travis Independent School District Educational Development Center,30.3704375,-97.9461875,"607 Ranch Rd 620 N, Austin, TX 78734",[]
Sterling Classical School,30.5205625,-97.9050625,"12800 Angel Side Dr, Leander, TX 78641",[]
Little Webberville Park,30.2296875,-97.5180625,"100 Water St, Webberville, TX 78621","['36% busy at 4\u202fAM.', '27% busy at 5\u202fAM.', '24% busy at 6\u202fAM.', '21% busy at 7\u202fAM.', '30% busy at 8\u202fAM.', '27% busy at 9\u202fAM.', '36% busy at 10\u202fAM.', '30% busy at 11\u202fAM.', '42% busy at 12\u202fPM.', '51% busy at 1\u202fPM.', '42% busy at 2\u202fPM.', '60% busy at 3\u202fPM.', '33% busy at 4\u202fPM.', '27% busy at 5\u202fPM.', '27% busy at 6\u202fPM.', '54% busy at 7\u202fPM.', '39% busy at 8\u202fPM.', '30% busy at 9\u202fPM.', '30% busy at 10\u202fPM.', '27% busy at 11\u202fPM.', '24% busy at 12\u202fAM.', '33% busy at 1\u202fAM.', '36% busy at 2\u202fAM.', '33% busy at 3\u202fAM.', '39% busy at 4\u202fAM.', '21% busy at 5\u202fAM.', '12% busy at 6\u202fAM.', '9% busy at 7\u202fAM.', '18% busy at 8\u202fAM.', '9% busy at 9\u202fAM.', '6% busy at 10\u202fAM.', '18% busy at 11\u202fAM.', '30% busy at 12\u202fPM.', '54% busy at 1\u202fPM.', '45% busy at 2\u202fPM.', '30% busy at 3\u202fPM.', '33% busy at 4\u202fPM.', '57% busy at 5\u202fPM.', '81% busy at 6\u202fPM.', '69% busy at 7\u202fPM.', '39% busy at 8\u202fPM.', '12% busy at 9\u202fPM.', '3% busy at 10\u202fPM.', '9% busy at 11\u202fPM.', '27% busy at 12\u202fAM.', '21% busy at 1\u202fAM.', '36% busy at 2\u202fAM.', '27% busy at 3\u202fAM.', '45% busy at 4\u202fAM.', '36% busy at 5\u202fAM.', '18% busy at 6\u202fAM.', '12% busy at 7\u202fAM.', '6% busy at 8\u202fAM.', '3% busy at 9\u202fAM.', '9% busy at 10\u202fAM.', '18% busy at 11\u202fAM.', '33% busy at 12\u202fPM.', '21% busy at 1\u202fPM.', '24% busy at 2\u202fPM.', '12% busy at 3\u202fPM.', '6% busy at 4\u202fPM.', '15% busy at 5\u202fPM.', '33% busy at 6\u202fPM.', '45% busy at 7\u202fPM.', '57% busy at 8\u202fPM.', '48% busy at 9\u202fPM.', '42% busy at 10\u202fPM.', '27% busy at 11\u202fPM.', '21% busy at 12\u202fAM.', '27% busy at 1\u202fAM.', '33% busy at 2\u202fAM.', '42% busy at 3\u202fAM.', '33% busy at 4\u202fAM.', '24% busy at 5\u202fAM.', '15% busy at 6\u202fAM.', '6% busy at 7\u202fAM.', '12% busy at 8\u202fAM.', '12% busy at 9\u202fAM.', '27% busy at 10\u202fAM.', '24% busy at 11\u202fAM.', '27% busy at 12\u202fPM.', '15% busy at 1\u202fPM.', '15% busy at 2\u202fPM.', '24% busy at 3\u202fPM.', '33% busy at 4\u202fPM.', '42% busy at 5\u202fPM.', '30% busy at 6\u202fPM.', '30% busy at 7\u202fPM.', '21% busy at 8\u202fPM.', '33% busy at 9\u202fPM.', '45% busy at 10\u202fPM.', '51% busy at 11\u202fPM.', '27% busy at 12\u202fAM.', '18% busy at 1\u202fAM.', '12% busy at 2\u202fAM.', '18% busy at 3\u202fAM.', '9% busy at 4\u202fAM.', '15% busy at 5\u202fAM.', '24% busy at 6\u202fAM.', '30% busy at 7\u202fAM.', '33% busy at 8\u202fAM.', '27% busy at 9\u202fAM.', '36% busy at 10\u202fAM.', '27% busy at 11\u202fAM.', '27% busy at 12\u202fPM.', '18% busy at 1\u202fPM.', '15% busy at 2\u202fPM.', '12% busy at 3\u202fPM.', '21% busy at 4\u202fPM.', '15% busy at 5\u202fPM.', '27% busy at 6\u202fPM.', '45% busy at 7\u202fPM.', '48% busy at 8\u202fPM.', '42% busy at 9\u202fPM.', '39% busy at 10\u202fPM.', '33% busy at 11\u202fPM.', '24% busy at 12\u202fAM.', '9% busy at 1\u202fAM.', '3% busy at 2\u202fAM.', '3% busy at 3\u202fAM.', '12% busy at 4\u202fAM.', '18% busy at 5\u202fAM.', '12% busy at 6\u202fAM.', '18% busy at 7\u202fAM.', '12% busy at 8\u202fAM.', '9% busy at 9\u202fAM.', '18% busy at 10\u202fAM.', '15% busy at 11\u202fAM.', '24% busy at 12\u202fPM.', '24% busy at 1\u202fPM.', '15% busy at 2\u202fPM.', '6% busy at 3\u202fPM.', '6% busy at 4\u202fPM.', '9% busy at 5\u202fPM.', '9% busy at 6\u202fPM.', '15% busy at 7\u202fPM.', '15% busy at 8\u202fPM.', '18% busy at 9\u202fPM.', '33% busy at 10\u202fPM.', '30% busy at 11\u202fPM.', '15% busy at 12\u202fAM.', '6% busy at 1\u202fAM.', '6% busy at 2\u202fAM.', '15% busy at 3\u202fAM.', '18% busy at 4\u202fAM.', '9% busy at 5\u202fAM.', '12% busy at 6\u202fAM.', '15% busy at 7\u202fAM.', '27% busy at 8\u202fAM.', '21% busy at 9\u202fAM.', '39% busy at 10\u202fAM.', 'Currently 100% busy, usually 51% busy.', '69% busy at 12\u202fPM.', '57% busy at 1\u202fPM.', '66% busy at 2\u202fPM.', '84% busy at 3\u202fPM.', '100% busy at 4\u202fPM.', '96% busy at 5\u202fPM.', '78% busy at 6\u202fPM.', '57% busy at 7\u202fPM.', '51% busy at 8\u202fPM.', '57% busy at 9\u202fPM.', '72% busy at 10\u202fPM.', '63% busy at 11\u202fPM.', '54% busy at 12\u202fAM.', '39% busy at 1\u202fAM.', '27% busy at 2\u202fAM.', '15% busy at 3\u202fAM.']"
Webberville Park,30.2121875,-97.4955625,"2305 Park Ln, Webberville, TX 78621","['0% busy at 6\u202fAM.', '0% busy at 7\u202fAM.', '17% busy at 8\u202fAM.', '23% busy at 9\u202fAM.', '19% busy at 10\u202fAM.', '22% busy at 11\u202fAM.', '28% busy at 12\u202fPM.', '38% busy at 1\u202fPM.', '37% busy at 2\u202fPM.', '30% busy at 3\u202fPM.', '21% busy at 4\u202fPM.', '20% busy at 5\u202fPM.', '20% busy at 6\u202fPM.', '17% busy at 7\u202fPM.', '0% busy at 8\u202fPM.', '0% busy at 9\u202fPM.', '0% busy at 10\u202fPM.', '0% busy at 11\u202fPM.', '0% busy at 6\u202fAM.', '0% busy at 7\u202fAM.', '0% busy at 8\u202fAM.', '0% busy at 9\u202fAM.', '0% busy at 10\u202fAM.', '0% busy at 11\u202fAM.', '0% busy at 12\u202fPM.', '0% busy at 1\u202fPM.', '2% busy at 2\u202fPM.', '6% busy at 3\u202fPM.', '8% busy at 4\u202fPM.', '6% busy at 5\u202fPM.', '2% busy at 6\u202fPM.', '1% busy at 7\u202fPM.', '0% busy at 8\u202fPM.', '0% busy at 9\u202fPM.', '0% busy at 10\u202fPM.', '0% busy at 11\u202fPM.', '0% busy at 6\u202fAM.', '0% busy at 7\u202fAM.', '7% busy at 8\u202fAM.', '11% busy at 9\u202fAM.', '11% busy at 10\u202fAM.', '7% busy at 11\u202fAM.', '6% busy at 12\u202fPM.', '3% busy at 1\u202fPM.', '4% busy at 2\u202fPM.', '3% busy at 3\u202fPM.', '5% busy at 4\u202fPM.', '6% busy at 5\u202fPM.', '6% busy at 6\u202fPM.', '6% busy at 7\u202fPM.', '0% busy at 8\u202fPM.', '0% busy at 9\u202fPM.', '0% busy at 10\u202fPM.', '0% busy at 11\u202fPM.', '0% busy at 6\u202fAM.', '0% busy at 7\u202fAM.', '4% busy at 8\u202fAM.', '5% busy at 9\u202fAM.', '2% busy at 10\u202fAM.', '1% busy at 11\u202fAM.', '0% busy at 12\u202fPM.', '0% busy at 1\u202fPM.', '1% busy at 2\u202fPM.', '2% busy at 3\u202fPM.', '6% busy at 4\u202fPM.', '10% busy at 5\u202fPM.', '12% busy at 6\u202fPM.', '12% busy at 7\u202fPM.', '0% busy at 8\u202fPM.', '0% busy at 9\u202fPM.', '0% busy at 10\u202fPM.', '0% busy at 11\u202fPM.', '0% busy at 6\u202fAM.', '0% busy at 7\u202fAM.', '1% busy at 8\u202fAM.', '2% busy at 9\u202fAM.', '4% busy at 10\u202fAM.', '2% busy at 11\u202fAM.', '2% busy at 12\u202fPM.', '0% busy at 1\u202fPM.', '1% busy at 2\u202fPM.', '2% busy at 3\u202fPM.', '6% busy at 4\u202fPM.', '12% busy at 5\u202fPM.', '12% busy at 6\u202fPM.', '6% busy at 7\u202fPM.', '0% busy at 8\u202fPM.', '0% busy at 9\u202fPM.', '0% busy at 10\u202fPM.', '0% busy at 11\u202fPM.', '0% busy at 6\u202fAM.', '0% busy at 7\u202fAM.', '0% busy at 8\u202fAM.', '1% busy at 9\u202fAM.', '2% busy at 10\u202fAM.', '3% busy at 11\u202fAM.', '2% busy at 12\u202fPM.', '1% busy at 1\u202fPM.', '2% busy at 2\u202fPM.', '5% busy at 3\u202fPM.', '8% busy at 4\u202fPM.', '9% busy at 5\u202fPM.', '7% busy at 6\u202fPM.', '4% busy at 7\u202fPM.', '0% busy at 8\u202fPM.', '0% busy at 9\u202fPM.', '0% busy at 10\u202fPM.', '0% busy at 11\u202fPM.', '0% busy at 6\u202fAM.', '0% busy at 7\u202fAM.', '49% busy at 8\u202fAM.', '73% busy at 9\u202fAM.', '90% busy at 10\u202fAM.', 'Currently 100% busy, usually 99% busy.', '100% busy at 12\u202fPM.', '86% busy at 1\u202fPM.', '73% busy at 2\u202fPM.', '61% busy at 3\u202fPM.', '46% busy at 4\u202fPM.', '34% busy at 5\u202fPM.', '22% busy at 6\u202fPM.', '16% busy at 7\u202fPM.', '0% busy at 8\u202fPM.', '0% busy at 9\u202fPM.', '0% busy at 10\u202fPM.', '0% busy at 11\u202fPM.']"
Webberville Grocery,30.2288125,-97.5161875,"19111 FM 969, Manor, TX 78653","['0% busy at 5\u202fAM.', '32% busy at 6\u202fAM.', '43% busy at 7\u202fAM.', '48% busy at 8\u202fAM.', '45% busy at 9\u202fAM.', '43% busy at 10\u202fAM.', '49% busy at 11\u202fAM.', '54% busy at 12\u202fPM.', '63% busy at 1\u202fPM.', '61% busy at 2\u202fPM.', '67% busy at 3\u202fPM.', '64% busy at 4\u202fPM.', '60% busy at 5\u202fPM.', '58% busy at 6\u202fPM.', '54% busy at 7\u202fPM.', '54% busy at 8\u202fPM.', '43% busy at 9\u202fPM.', '35% busy at 10\u202fPM.', '0% busy at 4\u202fAM.', '33% busy at 5\u202fAM.', '43% busy at 6\u202fAM.', '52% busy at 7\u202fAM.', '54% busy at 8\u202fAM.', '46% busy at 9\u202fAM.', '41% busy at 10\u202fAM.', '48% busy at 11\u202fAM.', '49% busy at 12\u202fPM.', '52% busy at 1\u202fPM.', '48% busy at 2\u202fPM.', '53% busy at 3\u202fPM.', '60% busy at 4\u202fPM.', '72% busy at 5\u202fPM.', '71% busy at 6\u202fPM.', '61% busy at 7\u202fPM.', '54% busy at 8\u202fPM.', '45% busy at 9\u202fPM.', '31% busy at 10\u202fPM.', '0% busy at 4\u202fAM.', '43% busy at 5\u202fAM.', '64% busy at 6\u202fAM.', '73% busy at 7\u202fAM.', '62% busy at 8\u202fAM.', '57% busy at 9\u202fAM.', '47% busy at 10\u202fAM.', '45% busy at 11\u202fAM.', '41% busy at 12\u202fPM.', '40% busy at 1\u202fPM.', '39% busy at 2\u202fPM.', '51% busy at 3\u202fPM.', '48% busy at 4\u202fPM.', '60% busy at 5\u202fPM.', '59% busy at 6\u202fPM.', '59% busy at 7\u202fPM.', '42% busy at 8\u202fPM.', '30% busy at 9\u202fPM.', '15% busy at 10\u202fPM.', '0% busy at 4\u202fAM.', '36% busy at 5\u202fAM.', '59% busy at 6\u202fAM.', '71% busy at 7\u202fAM.', '66% busy at 8\u202fAM.', '59% busy at 9\u202fAM.', '64% busy at 10\u202fAM.', '61% busy at 11\u202fAM.', '54% busy at 12\u202fPM.', '41% busy at 1\u202fPM.', '34% busy at 2\u202fPM.', '42% busy at 3\u202fPM.', '56% busy at 4\u202fPM.', '67% busy at 5\u202fPM.', '74% busy at 6\u202fPM.', '59% busy at 7\u202fPM.', '35% busy at 8\u202fPM.', '20% busy at 9\u202fPM.', '10% busy at 10\u202fPM.', '0% busy at 4\u202fAM.', '54% busy at 5\u202fAM.', '75% busy at 6\u202fAM.', '75% busy at 7\u202fAM.', '63% busy at 8\u202fAM.', '58% busy at 9\u202fAM.', '58% busy at 10\u202fAM.', '64% busy at 11\u202fAM.', '65% busy at 12\u202fPM.', '66% busy at 1\u202fPM.', '59% busy at 2\u202fPM.', '57% busy at 3\u202fPM.', '52% busy at 4\u202fPM.', '58% busy at 5\u202fPM.', '65% busy at 6\u202fPM.', '62% busy at 7\u202fPM.', '47% busy at 8\u202fPM.', '38% busy at 9\u202fPM.', '23% busy at 10\u202fPM.', '0% busy at 4\u202fAM.', '43% busy at 5\u202fAM.', '77% busy at 6\u202fAM.', '85% busy at 7\u202fAM.', '73% busy at 8\u202fAM.', '52% busy at 9\u202fAM.', '47% busy at 10\u202fAM.', '52% busy at 11\u202fAM.', '63% busy at 12\u202fPM.', '61% busy at 1\u202fPM.', '64% busy at 2\u202fPM.', '69% busy at 3\u202fPM.', '82% busy at 4\u202fPM.', '95% busy at 5\u202fPM.', '100% busy at 6\u202fPM.', '85% busy at 7\u202fPM.', '60% busy at 8\u202fPM.', '42% busy at 9\u202fPM.', '25% busy at 10\u202fPM.', '0% busy at 4\u202fAM.', '9% busy at 5\u202fAM.', '13% busy at 6\u202fAM.', '16% busy at 7\u202fAM.', '35% busy at 8\u202fAM.', '45% busy at 9\u202fAM.', '68% busy at 10\u202fAM.', '69% busy at 11\u202fAM.', '78% busy at 12\u202fPM.', '65% busy at 1\u202fPM.', '65% busy at 2\u202fPM.', '63% busy at 3\u202fPM.', '66% busy at 4\u202fPM.', '71% busy at 5\u202fPM.', '73% busy at 6\u202fPM.', '66% busy at 7\u202fPM.', '52% busy at 8\u202fPM.', '33% busy at 9\u202fPM.', '14% busy at 10\u202fPM.', '5% busy at 11\u202fPM.']"
Oak Springs Elementary School,30.2719375,-97.7045625,"3601 Webberville Rd, Austin, TX 78702",[]
Austin Community College Children's Lab School,30.2689375,-97.7054375,"Childcare Development Center, 3401 Webberville Rd, Austin, TX 78702",[]
Austin Community College Eastview Campus,30.2678125,-97.7059375,"3401 Webberville Rd, Austin, TX 78702",[]
Dollar General,30.224937500000003,-97.5128125,"19301 FM 969, Webberville, TX 78653","['0% busy at 6\u202fAM.', '0% busy at 7\u202fAM.', '24% busy at 8\u202fAM.', '20% busy at 9\u202fAM.', '24% busy at 10\u202fAM.', '31% busy at 11\u202fAM.', '41% busy at 12\u202fPM.', '60% busy at 1\u202fPM.', '68% busy at 2\u202fPM.', '72% busy at 3\u202fPM.', '61% busy at 4\u202fPM.', '48% busy at 5\u202fPM.', '44% busy at 6\u202fPM.', '53% busy at 7\u202fPM.', '57% busy at 8\u202fPM.', '40% busy at 9\u202fPM.', '0% busy at 10\u202fPM.', '0% busy at 11\u202fPM.', '0% busy at 6\u202fAM.', '0% busy at 7\u202fAM.', '12% busy at 8\u202fAM.', '15% busy at 9\u202fAM.', '28% busy at 10\u202fAM.', '31% busy at 11\u202fAM.', '35% busy at 12\u202fPM.', '41% busy at 1\u202fPM.', '56% busy at 2\u202fPM.', '68% busy at 3\u202fPM.', '78% busy at 4\u202fPM.', '84% busy at 5\u202fPM.', '79% busy at 6\u202fPM.', '69% busy at 7\u202fPM.', '49% busy at 8\u202fPM.', '28% busy at 9\u202fPM.', '0% busy at 10\u202fPM.', '0% busy at 11\u202fPM.', '0% busy at 6\u202fAM.', '0% busy at 7\u202fAM.', '18% busy at 8\u202fAM.', '14% busy at 9\u202fAM.', '20% busy at 10\u202fAM.', '17% busy at 11\u202fAM.', '25% busy at 12\u202fPM.', '34% busy at 1\u202fPM.', '47% busy at 2\u202fPM.', '63% busy at 3\u202fPM.', '81% busy at 4\u202fPM.', '94% busy at 5\u202fPM.', '81% busy at 6\u202fPM.', '71% busy at 7\u202fPM.', '61% busy at 8\u202fPM.', '46% busy at 9\u202fPM.', '0% busy at 10\u202fPM.', '0% busy at 11\u202fPM.', '0% busy at 6\u202fAM.', '0% busy at 7\u202fAM.', '19% busy at 8\u202fAM.', '32% busy at 9\u202fAM.', '29% busy at 10\u202fAM.', '32% busy at 11\u202fAM.', '28% busy at 12\u202fPM.', '26% busy at 1\u202fPM.', '35% busy at 2\u202fPM.', '48% busy at 3\u202fPM.', '74% busy at 4\u202fPM.', '84% busy at 5\u202fPM.', '86% busy at 6\u202fPM.', '72% busy at 7\u202fPM.', '50% busy at 8\u202fPM.', '23% busy at 9\u202fPM.', '0% busy at 10\u202fPM.', '0% busy at 11\u202fPM.', '0% busy at 6\u202fAM.', '0% busy at 7\u202fAM.', '24% busy at 8\u202fAM.', '16% busy at 9\u202fAM.', '18% busy at 10\u202fAM.', '17% busy at 11\u202fAM.', '29% busy at 12\u202fPM.', '30% busy at 1\u202fPM.', '41% busy at 2\u202fPM.', '55% busy at 3\u202fPM.', '75% busy at 4\u202fPM.', '100% busy at 5\u202fPM.', '93% busy at 6\u202fPM.', '83% busy at 7\u202fPM.', '61% busy at 8\u202fPM.', '43% busy at 9\u202fPM.', '0% busy at 10\u202fPM.', '0% busy at 11\u202fPM.', '0% busy at 6\u202fAM.', '0% busy at 7\u202fAM.', '24% busy at 8\u202fAM.', '32% busy at 9\u202fAM.', '33% busy at 10\u202fAM.', '22% busy at 11\u202fAM.', '25% busy at 12\u202fPM.', '31% busy at 1\u202fPM.', '46% busy at 2\u202fPM.', '53% busy at 3\u202fPM.', '65% busy at 4\u202fPM.', '76% busy at 5\u202fPM.', '85% busy at 6\u202fPM.', '76% busy at 7\u202fPM.', '57% busy at 8\u202fPM.', '30% busy at 9\u202fPM.', '0% busy at 10\u202fPM.', '0% busy at 11\u202fPM.', '0% busy at 6\u202fAM.', '0% busy at 7\u202fAM.', '10% busy at 8\u202fAM.', '16% busy at 9\u202fAM.', '24% busy at 10\u202fAM.', 'Currently 9% busy, usually 42% busy.', '56% busy at 12\u202fPM.', '74% busy at 1\u202fPM.', '82% busy at 2\u202fPM.', '81% busy at 3\u202fPM.', '78% busy at 4\u202fPM.', '77% busy at 5\u202fPM.', '78% busy at 6\u202fPM.', '79% busy at 7\u202fPM.', '68% busy at 8\u202fPM.', '52% busy at 9\u202fPM.', '0% busy at 10\u202fPM.', '0% busy at 11\u202fPM.']"
Premier High School - Austin Wells Branch,30.4379375,-97.6969375,"13801 Burnet Rd Ste. 300, Austin, TX 78727",[]
Jubilee Wells Branch,30.4573125,-97.6890625,"3711 Shoreline Dr, Austin, TX 78728",[]
Wells Branch Elementary,30.4449375,-97.6865625,"14650 Merrilltown Dr, Austin, TX 78728","['0% busy at 6\u202fAM.', '56% busy at 7\u202fAM.', '40% busy at 8\u202fAM.', '32% busy at 9\u202fAM.', '27% busy at 10\u202fAM.', '30% busy at 11\u202fAM.', '39% busy at 12\u202fPM.', '48% busy at 1\u202fPM.', '72% busy at 2\u202fPM.', '60% busy at 3\u202fPM.', '39% busy at 4\u202fPM.', '0% busy at 5\u202fPM.', '0% busy at 6\u202fPM.', '0% busy at 7\u202fPM.', '0% busy at 8\u202fPM.', '0% busy at 9\u202fPM.', '0% busy at 10\u202fPM.', '0% busy at 11\u202fPM.', '0% busy at 6\u202fAM.', '65% busy at 7\u202fAM.', '51% busy at 8\u202fAM.', '43% busy at 9\u202fAM.', '31% busy at 10\u202fAM.', '30% busy at 11\u202fAM.', '44% busy at 12\u202fPM.', '66% busy at 1\u202fPM.', '100% busy at 2\u202fPM.', '84% busy at 3\u202fPM.', '58% busy at 4\u202fPM.', '0% busy at 5\u202fPM.', '0% busy at 6\u202fPM.', '0% busy at 7\u202fPM.', '0% busy at 8\u202fPM.', '0% busy at 9\u202fPM.', '0% busy at 10\u202fPM.', '0% busy at 11\u202fPM.', '0% busy at 6\u202fAM.', '56% busy at 7\u202fAM.', '43% busy at 8\u202fAM.', '32% busy at 9\u202fAM.', '24% busy at 10\u202fAM.', '28% busy at 11\u202fAM.', '40% busy at 12\u202fPM.', '63% busy at 1\u202fPM.', '93% busy at 2\u202fPM.', '83% busy at 3\u202fPM.', '58% busy at 4\u202fPM.', '0% busy at 5\u202fPM.', '0% busy at 6\u202fPM.', '0% busy at 7\u202fPM.', '0% busy at 8\u202fPM.', '0% busy at 9\u202fPM.', '0% busy at 10\u202fPM.', '0% busy at 11\u202fPM.', '0% busy at 6\u202fAM.', '43% busy at 7\u202fAM.', '39% busy at 8\u202fAM.', '39% busy at 9\u202fAM.', '39% busy at 10\u202fAM.', '40% busy at 11\u202fAM.', '50% busy at 12\u202fPM.', '62% busy at 1\u202fPM.', '80% busy at 2\u202fPM.', '72% busy at 3\u202fPM.', '48% busy at 4\u202fPM.', '0% busy at 5\u202fPM.', '0% busy at 6\u202fPM.', '0% busy at 7\u202fPM.', '0% busy at 8\u202fPM.', '0% busy at 9\u202fPM.', '0% busy at 10\u202fPM.', '0% busy at 11\u202fPM.', '0% busy at 6\u202fAM.', '61% busy at 7\u202fAM.', '48% busy at 8\u202fAM.', '41% busy at 9\u202fAM.', '36% busy at 10\u202fAM.', '32% busy at 11\u202fAM.', '43% busy at 12\u202fPM.', '56% busy at 1\u202fPM.', '93% busy at 2\u202fPM.', '90% busy at 3\u202fPM.', '83% busy at 4\u202fPM.', '0% busy at 5\u202fPM.', '0% busy at 6\u202fPM.', '0% busy at 7\u202fPM.', '0% busy at 8\u202fPM.', '0% busy at 9\u202fPM.', '0% busy at 10\u202fPM.', '0% busy at 11\u202fPM.']"
Jubilee Wells Branch - Annex,30.4575625,-97.6916875,"15201 Burnet Rd, Austin, TX 78728",[]
Chaparral Star Academy,30.4379375,-97.6918125,"14046 Summit Dr, Austin, TX 78728",[]
Stepping Stone School Pflugerville,30.4338125,-97.6824375,"2001 Wells Branch Pkwy, Austin, TX 78728",[]
Northwest Elementary School,30.4320625,-97.6756875,"14014 Thermal Dr, Austin, TX 78728",[]
Wells Branch Community Library,30.4459375,-97.6758125,"15001 Wells Port Dr, Austin, TX 78728","['0% busy at 6\u202fAM.', '0% busy at 7\u202fAM.', '0% busy at 8\u202fAM.', '0% busy at 9\u202fAM.', '0% busy at 10\u202fAM.', '0% busy at 11\u202fAM.', '0% busy at 12\u202fPM.', '37% busy at 1\u202fPM.', '50% busy at 2\u202fPM.', '49% busy at 3\u202fPM.', '41% busy at 4\u202fPM.', '25% busy at 5\u202fPM.', '0% busy at 6\u202fPM.', '0% busy at 7\u202fPM.', '0% busy at 8\u202fPM.', '0% busy at 9\u202fPM.', '0% busy at 10\u202fPM.', '0% busy at 11\u202fPM.', '0% busy at 6\u202fAM.', '0% busy at 7\u202fAM.', '0% busy at 8\u202fAM.', '0% busy at 9\u202fAM.', '38% busy at 10\u202fAM.', '50% busy at 11\u202fAM.', '47% busy at 12\u202fPM.', '47% busy at 1\u202fPM.', '45% busy at 2\u202fPM.', '52% busy at 3\u202fPM.', '51% busy at 4\u202fPM.', '50% busy at 5\u202fPM.', '44% busy at 6\u202fPM.', '31% busy at 7\u202fPM.', '0% busy at 8\u202fPM.', '0% busy at 9\u202fPM.', '0% busy at 10\u202fPM.', '0% busy at 11\u202fPM.', '0% busy at 6\u202fAM.', '0% busy at 7\u202fAM.', '0% busy at 8\u202fAM.', '0% busy at 9\u202fAM.', '28% busy at 10\u202fAM.', '38% busy at 11\u202fAM.', '38% busy at 12\u202fPM.', '40% busy at 1\u202fPM.', '40% busy at 2\u202fPM.', '46% busy at 3\u202fPM.', '50% busy at 4\u202fPM.', '51% busy at 5\u202fPM.', '46% busy at 6\u202fPM.', '33% busy at 7\u202fPM.', '0% busy at 8\u202fPM.', '0% busy at 9\u202fPM.', '0% busy at 10\u202fPM.', '0% busy at 11\u202fPM.', '0% busy at 6\u202fAM.', '0% busy at 7\u202fAM.', '0% busy at 8\u202fAM.', '0% busy at 9\u202fAM.', '35% busy at 10\u202fAM.', '39% busy at 11\u202fAM.', '38% busy at 12\u202fPM.', '38% busy at 1\u202fPM.', '38% busy at 2\u202fPM.', '42% busy at 3\u202fPM.', '43% busy at 4\u202fPM.', '45% busy at 5\u202fPM.', '38% busy at 6\u202fPM.', '28% busy at 7\u202fPM.', '0% busy at 8\u202fPM.', '0% busy at 9\u202fPM.', '0% busy at 10\u202fPM.', '0% busy at 11\u202fPM.', '0% busy at 6\u202fAM.', '0% busy at 7\u202fAM.', '0% busy at 8\u202fAM.', '0% busy at 9\u202fAM.', '16% busy at 10\u202fAM.', '26% busy at 11\u202fAM.', '33% busy at 12\u202fPM.', '36% busy at 1\u202fPM.', '39% busy at 2\u202fPM.', '37% busy at 3\u202fPM.', '38% busy at 4\u202fPM.', '45% busy at 5\u202fPM.', '41% busy at 6\u202fPM.', '38% busy at 7\u202fPM.', '0% busy at 8\u202fPM.', '0% busy at 9\u202fPM.', '0% busy at 10\u202fPM.', '0% busy at 11\u202fPM.', '0% busy at 6\u202fAM.', '0% busy at 7\u202fAM.', '0% busy at 8\u202fAM.', '0% busy at 9\u202fAM.', '27% busy at 10\u202fAM.', '40% busy at 11\u202fAM.', '42% busy at 12\u202fPM.', '42% busy at 1\u202fPM.', '44% busy at 2\u202fPM.', '47% busy at 3\u202fPM.', '45% busy at 4\u202fPM.', '39% busy at 5\u202fPM.', '0% busy at 6\u202fPM.', '0% busy at 7\u202fPM.', '0% busy at 8\u202fPM.', '0% busy at 9\u202fPM.', '0% busy at 10\u202fPM.', '0% busy at 11\u202fPM.', '0% busy at 6\u202fAM.', '0% busy at 7\u202fAM.', '0% busy at 8\u202fAM.', '0% busy at 9\u202fAM.', '89% busy at 10\u202fAM.', 'Currently 65% busy, usually 100% busy.', '93% busy at 12\u202fPM.', '74% busy at 1\u202fPM.', '72% busy at 2\u202fPM.', '74% busy at 3\u202fPM.', '66% busy at 4\u202fPM.', '47% busy at 5\u202fPM.', '0% busy at 6\u202fPM.', '0% busy at 7\u202fPM.', '0% busy at 8\u202fPM.', '0% busy at 9\u202fPM.', '0% busy at 10\u202fPM.', '0% busy at 11\u202fPM.']"
Valor North Austin,30.4319375,-97.6711875,"14200 N Interstate Hwy 35, Austin, TX 78728",[]
Fusion Academy Austin,30.2875625,-97.8161875,"4701 Bee Caves Rd STE 101, Austin, TX 78746",[]
Acton Academy West,30.2751875,-97.8043125,"3423 Bee Caves Rd, West Lake Hills, TX 78746",[]
Primrose School of West Lake Hills,30.2753125,-97.8039375,"3423 Bee Caves Rd Suite A, Austin, TX 78746",[]
Westlake High School Fields 1 & 2,30.2750625,-97.8118125,"West Lake Hills, TX 78746",[]
Guidepost Montessori at Westlake,30.2869375,-97.8159375,"4613B Bee Caves Rd, West Lake Hills, TX 78746",[]
Texas Private Schools Association,30.2976875,-97.8104375,"804 Ledgeway St W, West Lake Hills, TX 78746",[]
Westlake High School Robotics Building,30.2758125,-97.8114375,"1110 Westbank Dr, Austin, TX 78746",[]
The Schoolyard,30.2843125,-97.8124375,"4201 Bee Caves Rd, West Lake Hills, TX 78746",[]
